{"type":"FeatureCollection","features":[{"type":"Feature","geometry":{"type":"Point","coordinates":[0,0,0]},"properties":{"id":"*unique ID","latitude":"","longitude":"","name":"*nama ","description (produk)":"*guides: minuman (jenis), makanan ringan (jenis), makanan berat (jenis), dessert, bakery","tenant_type (umkm/franchise-tetap/seasonal)":"*guides: umkm-seasonal, umkm-tetap, franchise-tetap, franchise-seasonal","period (tahun/bulan/minggu)":"*guides: <number> tahun/bulan/minggu, pembulatan berlaku","transaction_per_day (ribu/juta/milliar)":"*guides: <number> ribu/juta/milliar, pembulatan berlaku, high_traffic: normal: low_traffic format if exist","tenant_area (meters squared)":"*guides: <number> m x <number> m","target_market (pejalan kaki, pekerja kantoran, warga)":"*guides: pejalan kaki, pekerja kantoran, warga overall","revenue_per_month":"*guides: <number> ribu/juta/milliar","transaction_per_buyer":"*guides: <number> ribu/juta","rent_trend":"*guides: <number> %","rent_price_annual":"*guides: <number> ribu/juta/milliar","rent_expiry_date":"*guides: <number> <month> <year>, none = lifetime if there are no expiration date provided","tanggal_survey":"*format: DD/MM/YYYY","kondisi_bangunan":"*guides: kosong lama / baru ditinggal / masih dipakai sebagian, dll","moda_terhubung":"*guides: halte TransJakarta / pangkalan ojek / akses LRT-MRT / area drop-off (boleh lebih dari satu)","jarak_ke_stasiun_meter":"*angka perkiraan jarak jalan kaki ke pintu stasiun terdekat"}},{"type":"Feature","geometry":{"type":"Point","coordinates":[106.822615,-6.202065,0]},"properties":{"id":"1","latitude":"-6.202065","longitude":"106.822615","name":"mochie moe moe","description (produk)":"bakery, dessert","tenant_type (umkm/franchise-tetap/seasonal)":"umkm-seasonal","period (tahun/bulan/minggu)":"1 tahun","transaction_per_day (ribu/juta/milliar)":"5 juta","tenant_area (meters squared)":"3.5 m x 3.5 m","target_market (pejalan kaki, pekerja kantoran, warga)":"pejalan kaki, pekerja kantoran","revenue_per_month":"150juta","transaction_per_buyer":"20 ribu","rent_trend":"4 %","rent_price_annual":"13 juta/bulan","rent_expiry_date":"23 aug","tanggal_survey":"21-Jul-2026","kondisi_bangunan":"bagus","moda_terhubung":"MRT","jarak_ke_stasiun_meter":"25"}},{"type":"Feature","geometry":{"type":"Point","coordinates":[106.822611,-6.202022,0]},"properties":{"id":"2","latitude":"-6.202022","longitude":"106.822611","name":"risol pedas","description (produk)":"gorengan","tenant_type (umkm/franchise-tetap/seasonal)":"umkm-seasonal","period (tahun/bulan/minggu)":"1 tahun","transaction_per_day (ribu/juta/milliar)":"2 juta","tenant_area (meters squared)":"3.5 m x 3.5 m","target_market (pejalan kaki, pekerja kantoran, warga)":"pejalan kaki, pekerja kantoran","revenue_per_month":"50 juta","transaction_per_buyer":"20 ribu","rent_trend":"4 %","rent_price_annual":"13  juta/bulan","rent_expiry_date":"none","tanggal_survey":"22-Jul-2026","kondisi_bangunan":"bagus","moda_terhubung":"MRT","jarak_ke_stasiun_meter":"29"}},{"type":"Feature","geometry":{"type":"Point","coordinates":[106.822764,-6.202072,0]},"properties":{"id":"3","latitude":"-6.202072","longitude":"106.822764","name":"dimsum makmur abadi","description (produk)":"gorengan","tenant_type (umkm/franchise-tetap/seasonal)":"umkm-seasonal","period (tahun/bulan/minggu)":"1 tahun","transaction_per_day (ribu/juta/milliar)":"1.5 juta","tenant_area (meters squared)":"3.5 m x 3.5 m","target_market (pejalan kaki, pekerja kantoran, warga)":"pejalan kaki, pekerja kantoran","revenue_per_month":"40 juta","transaction_per_buyer":"25 ribu","rent_trend":"4 %","rent_price_annual":"13 juta/bulan","rent_expiry_date":"none","tanggal_survey":"23-Jul-2026","kondisi_bangunan":"bagus","moda_terhubung":"MRT","jarak_ke_stasiun_meter":"32"}},{"type":"Feature","geometry":{"type":"Point","coordinates":[106.82274,-6.20207,0]},"properties":{"id":"4","latitude":"-6.20207","longitude":"106.82274","name":"tuku","description (produk)":"minuman (kopi), dessert","tenant_type (umkm/franchise-tetap/seasonal)":"franchise-tetap","period (tahun/bulan/minggu)":"2 tahun","transaction_per_day (ribu/juta/milliar)":"40 juta","tenant_area (meters squared)":"5 m x 5 m","target_market (pejalan kaki, pekerja kantoran, warga)":"pekerja kantoran, pejalan kaki, warga","revenue_per_month":"120 juta","transaction_per_buyer":"50 ribu","rent_trend":"0 %","rent_price_annual":"60 juta/tahun","rent_expiry_date":"none","tanggal_survey":"24-Jul-2026","kondisi_bangunan":"bagus","moda_terhubung":"MRT","jarak_ke_stasiun_meter":"31"}},{"type":"Feature","geometry":{"type":"Point","coordinates":[106.822641,-6.202047,0]},"properties":{"id":"5","latitude":"-6.202047","longitude":"106.822641","name":"difabis","description (produk)":"minuman (kopi, teh), dessert","tenant_type (umkm/franchise-tetap/seasonal)":"franchise-tetap","period (tahun/bulan/minggu)":"4 tahun","transaction_per_day (ribu/juta/milliar)":"3 juta","tenant_area (meters squared)":"5 m x 5 m","target_market (pejalan kaki, pekerja kantoran, warga)":"pekerja kantoran, pejalan kaki, warga","revenue_per_month":"70 juta","transaction_per_buyer":"40 ribu","rent_trend":"5 %","rent_price_annual":"60 juta/tahun","rent_expiry_date":"none","tanggal_survey":"25-Jul-2026","kondisi_bangunan":"bagus","moda_terhubung":"MRT","jarak_ke_stasiun_meter":"27"}},{"type":"Feature","geometry":{"type":"Point","coordinates":[106.822531,-6.201888,0]},"properties":{"id":"6","latitude":"-6.201888","longitude":"106.822531","name":"yahwa","description (produk)":"minuman (kopi, teh)","tenant_type (umkm/franchise-tetap/seasonal)":"umkm-tetap","period (tahun/bulan/minggu)":"2 tahun","transaction_per_day (ribu/juta/milliar)":"800 ribu","tenant_area (meters squared)":"4 m x 4 m","target_market (pejalan kaki, pekerja kantoran, warga)":"pejalan kaki, pekerja kantoran","revenue_per_month":"24 juta","transaction_per_buyer":"50 ribu","rent_trend":"0 %","rent_price_annual":"160 ribu/hari","rent_expiry_date":"none","tanggal_survey":"26-Jul-2026","kondisi_bangunan":"bagus","moda_terhubung":"MRT","jarak_ke_stasiun_meter":"44"}},{"type":"Feature","geometry":{"type":"Point","coordinates":[106.822524,-6.201911,0]},"properties":{"id":"7","latitude":"-6.201911","longitude":"106.822524","name":"warung uni desi","description (produk)":"makanan berat (nasi)","tenant_type (umkm/franchise-tetap/seasonal)":"umkm-tetap","period (tahun/bulan/minggu)":"2 tahun","transaction_per_day (ribu/juta/milliar)":"900 ribu","tenant_area (meters squared)":"4 m x 3 m","target_market (pejalan kaki, pekerja kantoran, warga)":"pekerja kantoran, pejalan kaki","revenue_per_month":"12 juta","transaction_per_buyer":"25 ribu","rent_trend":"0 %","rent_price_annual":"180 ribu/hari","rent_expiry_date":"none","tanggal_survey":"27-Jul-2026","kondisi_bangunan":"bagus","moda_terhubung":"MRT","jarak_ke_stasiun_meter":"41"}},{"type":"Feature","geometry":{"type":"Point","coordinates":[106.822455,-6.201936,0]},"properties":{"id":"8","latitude":"-6.201936","longitude":"106.822455","name":"mie ayam nada cinta","description (produk)":"makanan berat (mie)","tenant_type (umkm/franchise-tetap/seasonal)":"umkm-tetap","period (tahun/bulan/minggu)":"2 tahun","transaction_per_day (ribu/juta/milliar)":"500 ribu","tenant_area (meters squared)":"4 m x 3 m","target_market (pejalan kaki, pekerja kantoran, warga)":"pekerja kantoran, pejalan kaki","revenue_per_month":"12 juta","transaction_per_buyer":"30 ribu","rent_trend":"0 %","rent_price_annual":"100 ribu/hari","rent_expiry_date":"none","tanggal_survey":"28-Jul-2026","kondisi_bangunan":"bagus","moda_terhubung":"MRT","jarak_ke_stasiun_meter":"40"}},{"type":"Feature","geometry":{"type":"Point","coordinates":[106.822697,-6.201762,0]},"properties":{"id":"9","latitude":"-6.201762","longitude":"106.822697","name":"tebucin","description (produk)":"minuman (teh)","tenant_type (umkm/franchise-tetap/seasonal)":"umkm-tetap","period (tahun/bulan/minggu)":"1.5 tahun","transaction_per_day (ribu/juta/milliar)":"600 ribu","tenant_area (meters squared)":"4 m x 3 m","target_market (pejalan kaki, pekerja kantoran, warga)":"pekerja kantoran, pejalan kaki","revenue_per_month":"14 juta","transaction_per_buyer":"30 ribu","rent_trend":"0 %","rent_price_annual":"120 ribu/hari","rent_expiry_date":"none","tanggal_survey":"29-Jul-2026","kondisi_bangunan":"bagus","moda_terhubung":"MRT","jarak_ke_stasiun_meter":"60"}},{"type":"Feature","geometry":{"type":"Point","coordinates":[106.822676,-6.20173,0]},"properties":{"id":"10","latitude":"-6.20173","longitude":"106.822676","name":"pawon tari","description (produk)":"makanan berat","tenant_type (umkm/franchise-tetap/seasonal)":"umkm-tetap","period (tahun/bulan/minggu)":"3 tahun","transaction_per_day (ribu/juta/milliar)":"900ribu","tenant_area (meters squared)":"4 m x 3 m","target_market (pejalan kaki, pekerja kantoran, warga)":"pekerja kantoran, pejalan kaki","revenue_per_month":"15 juta","transaction_per_buyer":"35 ribu","rent_trend":"0 %","rent_price_annual":"180 ribu/hari","rent_expiry_date":"none","tanggal_survey":"30-Jul-2026","kondisi_bangunan":"bagus","moda_terhubung":"MRT","jarak_ke_stasiun_meter":"62"}},{"type":"Feature","geometry":{"type":"Point","coordinates":[106.822678,-6.20173,0]},"properties":{"id":"11","latitude":"-6.20173","longitude":"106.822678","name":"dapur rasya","description (produk)":"makanan berat, makanan ringan (gorengan)","tenant_type (umkm/franchise-tetap/seasonal)":"umkm-seasonal","period (tahun/bulan/minggu)":"1 bulan","transaction_per_day (ribu/juta/milliar)":"1.5 juta","tenant_area (meters squared)":"3 m x 3 m","target_market (pejalan kaki, pekerja kantoran, warga)":"pekerja kantoran, pejalan kaki","revenue_per_month":"35 juta","transaction_per_buyer":"50ribu","rent_trend":"5 %","rent_price_annual":"2 juta/5 hari","rent_expiry_date":"none","tanggal_survey":"31-Jul-2026","kondisi_bangunan":"bagus","moda_terhubung":"MRT","jarak_ke_stasiun_meter":"62"}},{"type":"Feature","geometry":{"type":"Point","coordinates":[106.82266,-6.201766,0]},"properties":{"id":"12","latitude":"-6.201766","longitude":"106.82266","name":"sedap rasa","description (produk)":"makanan berat","tenant_type (umkm/franchise-tetap/seasonal)":"umkm-tetap","period (tahun/bulan/minggu)":"2.5 tahun","transaction_per_day (ribu/juta/milliar)":"1..5 juta","tenant_area (meters squared)":"4 m x 3 m","target_market (pejalan kaki, pekerja kantoran, warga)":"pekerja kantoran, pejalan kaki","revenue_per_month":"17 juta","transaction_per_buyer":"25ribu","rent_trend":"0 %","rent_price_annual":"300 ribu/hari","rent_expiry_date":"none","tanggal_survey":"1-Agu-2026","kondisi_bangunan":"bagus","moda_terhubung":"MRT","jarak_ke_stasiun_meter":"58"}},{"type":"Feature","geometry":{"type":"Point","coordinates":[106.82268,-6.201697,0]},"properties":{"id":"13","latitude":"-6.201697","longitude":"106.82268","name":"dapur pontianak","description (produk)":"makanan berat","tenant_type (umkm/franchise-tetap/seasonal)":"umkm-tetap","period (tahun/bulan/minggu)":"2 tahun","transaction_per_day (ribu/juta/milliar)":"1.3 juta","tenant_area (meters squared)":"4 m x 3 m","target_market (pejalan kaki, pekerja kantoran, warga)":"pekerja kantoran, pejalan kaki","revenue_per_month":"18 juta","transaction_per_buyer":"30 ribu","rent_trend":"0 %","rent_price_annual":"260 ribu/hari","rent_expiry_date":"none","tanggal_survey":"2-Agu-2026","kondisi_bangunan":"bagus","moda_terhubung":"MRT","jarak_ke_stasiun_meter":"66"}},{"type":"Feature","geometry":{"type":"Point","coordinates":[106.822654,-6.201714,0]},"properties":{"id":"14","latitude":"-6.201714","longitude":"106.822654","name":"radisha nasi uduk betawi","description (produk)":"makanan berat (nasi)","tenant_type (umkm/franchise-tetap/seasonal)":"umkm-tetap","period (tahun/bulan/minggu)":"1 tahun","transaction_per_day (ribu/juta/milliar)":"1 juta","tenant_area (meters squared)":"4 m x 3 m","target_market (pejalan kaki, pekerja kantoran, warga)":"pekerja kantoran, pejalan kaki","revenue_per_month":"19 juta","transaction_per_buyer":"30 ribu","rent_trend":"0 %","rent_price_annual":"200 ribu/hari","rent_expiry_date":"none","tanggal_survey":"3-Agu-2026","kondisi_bangunan":"bagus","moda_terhubung":"MRT","jarak_ke_stasiun_meter":"64"}},{"type":"Feature","geometry":{"type":"Point","coordinates":[106.822662,-6.201716,0]},"properties":{"id":"15","latitude":"-6.201716","longitude":"106.822662","name":"obellys","description (produk)":"minuman ","tenant_type (umkm/franchise-tetap/seasonal)":"umkm-tetap","period (tahun/bulan/minggu)":"1 tahun","transaction_per_day (ribu/juta/milliar)":"800 ribu","tenant_area (meters squared)":"4 m x 3 m","target_market (pejalan kaki, pekerja kantoran, warga)":"pekerja kantoran, pejalan kaki","revenue_per_month":"20 juta","transaction_per_buyer":"35 ribu","rent_trend":"0 %","rent_price_annual":"160 ribu/hari","rent_expiry_date":"none","tanggal_survey":"4-Agu-2026","kondisi_bangunan":"bagus","moda_terhubung":"MRT","jarak_ke_stasiun_meter":"64"}},{"type":"Feature","geometry":{"type":"Point","coordinates":[106.822645,-6.201733,0]},"properties":{"id":"16","latitude":"-6.201733","longitude":"106.822645","name":"jus gemoy","description (produk)":"minuman","tenant_type (umkm/franchise-tetap/seasonal)":"umkm-tetap","period (tahun/bulan/minggu)":"1 tahun","transaction_per_day (ribu/juta/milliar)":"700 ribu","tenant_area (meters squared)":"4 m x 3 m","target_market (pejalan kaki, pekerja kantoran, warga)":"pekerja kantoran, pejalan kaki","revenue_per_month":"21 juta","transaction_per_buyer":"30 ribu","rent_trend":"0 %","rent_price_annual":"140 ribu/hari","rent_expiry_date":"none","tanggal_survey":"5-Agu-2026","kondisi_bangunan":"bagus","moda_terhubung":"MRT","jarak_ke_stasiun_meter":"61"}},{"type":"Feature","geometry":{"type":"Point","coordinates":[106.822629218093,-6.20177840337394,0]},"properties":{"id":"17","latitude":"-6.20177840337394","longitude":"106.822629218093","name":"soto bang rifky","description (produk)":"makanan berat (soto)","tenant_type (umkm/franchise-tetap/seasonal)":"umkm-tetap","period (tahun/bulan/minggu)":"2 tahun","transaction_per_day (ribu/juta/milliar)":"1.2 juta","tenant_area (meters squared)":"4 m x 3 m","target_market (pejalan kaki, pekerja kantoran, warga)":"pekerja kantoran, pejalan kaki","revenue_per_month":"22 juta","transaction_per_buyer":"35 ribu","rent_trend":"0 %","rent_price_annual":"240 ribu/hari","rent_expiry_date":"none","tanggal_survey":"6-Agu-2026","kondisi_bangunan":"bagus","moda_terhubung":"MRT","jarak_ke_stasiun_meter":"56"}},{"type":"Feature","geometry":{"type":"Point","coordinates":[106.822745,-6.201736,0]},"properties":{"id":"18","latitude":"-6.201736","longitude":"106.822745","name":"aa fun chicken","description (produk)":"makanan berat, gorengan","tenant_type (umkm/franchise-tetap/seasonal)":"umkm-seasonal","period (tahun/bulan/minggu)":"9 bulan","transaction_per_day (ribu/juta/milliar)":"1.5 juta","tenant_area (meters squared)":"4 m x 3 m","target_market (pejalan kaki, pekerja kantoran, warga)":"pekerja kantoran, pejalan kaki","revenue_per_month":"40 juta","transaction_per_buyer":"40 ribu","rent_trend":"4 %","rent_price_annual":"13 juta/bulan","rent_expiry_date":"none","tanggal_survey":"7-Agu-2026","kondisi_bangunan":"bagus","moda_terhubung":"MRT","jarak_ke_stasiun_meter":"64"}},{"type":"Feature","geometry":{"type":"Point","coordinates":[106.822635923623,-6.2017030744144,0]},"properties":{"id":"19","latitude":"-6.2017030744144","longitude":"106.822635923623","name":"dimsum abadi jaya","description (produk)":"makanan ringan (gorengan)","tenant_type (umkm/franchise-tetap/seasonal)":"umkm-seasonal","period (tahun/bulan/minggu)":"8 bulan","transaction_per_day (ribu/juta/milliar)":"1.8 juta","tenant_area (meters squared)":"4 m x 3 m","target_market (pejalan kaki, pekerja kantoran, warga)":"pekerja kantoran, pejalan kaki","revenue_per_month":"45 juta","transaction_per_buyer":"45 ribu","rent_trend":"0 %","rent_price_annual":"2 juta/5 hari","rent_expiry_date":"none","tanggal_survey":"8-Agu-2026","kondisi_bangunan":"bagus","moda_terhubung":"MRT","jarak_ke_stasiun_meter":"65"}},{"type":"Feature","geometry":{"type":"Point","coordinates":[106.822649,-6.202013,0]},"properties":{"id":"20","latitude":"-6.202013","longitude":"106.822649","name":"siomay bandung","description (produk)":"makanan ringan (gorengan)","tenant_type (umkm/franchise-tetap/seasonal)":"umkm-seasonal","period (tahun/bulan/minggu)":"6 bulan","transaction_per_day (ribu/juta/milliar)":"1.9 juta","tenant_area (meters squared)":"4 m x 3 m","target_market (pejalan kaki, pekerja kantoran, warga)":"pekerja kantoran, pejalan kaki","revenue_per_month":"41 juta","transaction_per_buyer":"35 ribu","rent_trend":"0 %","rent_price_annual":"2 juta/5 hari","rent_expiry_date":"none","tanggal_survey":"9-Agu-2026","kondisi_bangunan":"bagus","moda_terhubung":"MRT","jarak_ke_stasiun_meter":"31"}},{"type":"Feature","geometry":{"type":"Point","coordinates":[106.822845,-6.202313,0]},"properties":{"id":"21","latitude":"-6.202313","longitude":"106.822845","name":"ice cream durian asli duriannya","description (produk)":"dessert(makanan penutup)","tenant_type (umkm/franchise-tetap/seasonal)":"umkm-seasonal","period (tahun/bulan/minggu)":"7 bulan","transaction_per_day (ribu/juta/milliar)":"1.5 juta","tenant_area (meters squared)":"4 m x 3 m","target_market (pejalan kaki, pekerja kantoran, warga)":"pekerja kantoran, pejalan kaki","revenue_per_month":"45 juta","transaction_per_buyer":"40 ribu","rent_trend":"0 %","rent_price_annual":"2 juta/5 hari","rent_expiry_date":"none","tanggal_survey":"10-Agu-2026","kondisi_bangunan":"bagus","moda_terhubung":"MRT","jarak_ke_stasiun_meter":"32"}},{"type":"Feature","geometry":{"type":"Point","coordinates":[106.82281,-6.202277,0]},"properties":{"id":"22","latitude":"-6.202277","longitude":"106.82281","name":"cilemboost","description (produk)":"makanan ringan (gorengan)","tenant_type (umkm/franchise-tetap/seasonal)":"umkm-seasonal","period (tahun/bulan/minggu)":"7 bulan","transaction_per_day (ribu/juta/milliar)":"2 juta","tenant_area (meters squared)":"4 m x 3 m","target_market (pejalan kaki, pekerja kantoran, warga)":"pekerja kantoran, pejalan kaki","revenue_per_month":"61 juta","transaction_per_buyer":"40 ribu","rent_trend":"0 %","rent_price_annual":"2 juta/5 hari","rent_expiry_date":"none","tanggal_survey":"11-Agu-2026","kondisi_bangunan":"bagus","moda_terhubung":"MRT","jarak_ke_stasiun_meter":"28"}},{"type":"Feature","geometry":{"type":"Point","coordinates":[106.822766,-6.202334,0]},"properties":{"id":"23","latitude":"-6.202334","longitude":"106.822766","name":"ndl burgerlicious","description (produk)":"makanan berat","tenant_type (umkm/franchise-tetap/seasonal)":"umkm-seasonal","period (tahun/bulan/minggu)":"8 bulan","transaction_per_day (ribu/juta/milliar)":"4 juta","tenant_area (meters squared)":"3.5 m x 3 m","target_market (pejalan kaki, pekerja kantoran, warga)":"pekerja kantoran, pejalan kaki","revenue_per_month":"79 juta","transaction_per_buyer":"50 ribu","rent_trend":"5 %","rent_price_annual":"2.5 juta/4 hari","rent_expiry_date":"none","tanggal_survey":"12-Agu-2026","kondisi_bangunan":"bagus","moda_terhubung":"MRT","jarak_ke_stasiun_meter":"24"}},{"type":"Feature","geometry":{"type":"Point","coordinates":[106.822837,-6.202344,0]},"properties":{"id":"24","latitude":"-6.202344","longitude":"106.822837","name":"pisang goreng khas pontianak","description (produk)":"makanan ringan (gorengan)","tenant_type (umkm/franchise-tetap/seasonal)":"umkm-seasonal","period (tahun/bulan/minggu)":"7.5 bulan","transaction_per_day (ribu/juta/milliar)":"900 ribu","tenant_area (meters squared)":"3.5 m x 3 m","target_market (pejalan kaki, pekerja kantoran, warga)":"pekerja kantoran, pejalan kaki","revenue_per_month":"25 juta","transaction_per_buyer":"30 ribu","rent_trend":"0 %","rent_price_annual":"500 ribu/hari","rent_expiry_date":"none","tanggal_survey":"13-Agu-2026","kondisi_bangunan":"bagus","moda_terhubung":"MRT","jarak_ke_stasiun_meter":"32"}},{"type":"Feature","geometry":{"type":"Point","coordinates":[106.822821,-6.20229,0]},"properties":{"id":"25","latitude":"-6.20229","longitude":"106.822821","name":"ryu dimsum","description (produk)":"makanan ringan (gorengan)","tenant_type (umkm/franchise-tetap/seasonal)":"umkm-seasonal","period (tahun/bulan/minggu)":"9 bulan","transaction_per_day (ribu/juta/milliar)":"2 juta","tenant_area (meters squared)":"3.5 m x 3 m","target_market (pejalan kaki, pekerja kantoran, warga)":"pekerja kantoran, pejalan kaki","revenue_per_month":"30 juta","transaction_per_buyer":"20 ribu","rent_trend":"0 %","rent_price_annual":"500 ribu/hari","rent_expiry_date":"none","tanggal_survey":"14-Agu-2026","kondisi_bangunan":"bagus","moda_terhubung":"MRT","jarak_ke_stasiun_meter":"29"}},{"type":"Feature","geometry":{"type":"Point","coordinates":[106.822847,-6.202348,0]},"properties":{"id":"26","latitude":"-6.202348","longitude":"106.822847","name":"ayam taliwang mbok sutil","description (produk)":"makanan berat (ayam)","tenant_type (umkm/franchise-tetap/seasonal)":"umkm-seasonal","period (tahun/bulan/minggu)":"1 tahun","transaction_per_day (ribu/juta/milliar)":"2.5 juta","tenant_area (meters squared)":"3.5 m x 3.5 m","target_market (pejalan kaki, pekerja kantoran, warga)":"pekerja kantoran, pejalan kaki","revenue_per_month":"35 juta","transaction_per_buyer":"40 ribu","rent_trend":"4 %","rent_price_annual":"13 juta/bulan","rent_expiry_date":"none","tanggal_survey":"15-Agu-2026","kondisi_bangunan":"bagus","moda_terhubung":"MRT","jarak_ke_stasiun_meter":"33"}},{"type":"Feature","geometry":{"type":"Point","coordinates":[106.822771,-6.202267,0]},"properties":{"id":"27","latitude":"-6.202267","longitude":"106.822771","name":"jeruk peras","description (produk)":"minuman","tenant_type (umkm/franchise-tetap/seasonal)":"umkm-seasonal","period (tahun/bulan/minggu)":"8 bulan","transaction_per_day (ribu/juta/milliar)":"600 ribu","tenant_area (meters squared)":"3.5 m x 3 m","target_market (pejalan kaki, pekerja kantoran, warga)":"pekerja kantoran, pejalan kaki","revenue_per_month":"15 juta","transaction_per_buyer":"20 ribu","rent_trend":"0 %","rent_price_annual":"500 ribu/hari","rent_expiry_date":"none","tanggal_survey":"16-Agu-2026","kondisi_bangunan":"bagus","moda_terhubung":"MRT","jarak_ke_stasiun_meter":"24"}},{"type":"Feature","geometry":{"type":"Point","coordinates":[106.822768,-6.202332,0]},"properties":{"id":"28","latitude":"-6.202332","longitude":"106.822768","name":"warung sarapan","description (produk)":"makanan berat, makanan ringan (gorengan)","tenant_type (umkm/franchise-tetap/seasonal)":"umkm-tetap","period (tahun/bulan/minggu)":"10 tahun","transaction_per_day (ribu/juta/milliar)":"9 juta","tenant_area (meters squared)":"4 m x 10 m","target_market (pejalan kaki, pekerja kantoran, warga)":"pekerja kantoran, pejalan kaki","revenue_per_month":"250 juta","transaction_per_buyer":"30 ribu","rent_trend":"0 %","rent_price_annual":"100 juta/tahun","rent_expiry_date":"none","tanggal_survey":"17-Agu-2026","kondisi_bangunan":"bagus","moda_terhubung":"MRT","jarak_ke_stasiun_meter":"24"}},{"type":"Feature","geometry":{"type":"Point","coordinates":[106.822802,-6.20232,0]},"properties":{"id":"29","latitude":"-6.20232","longitude":"106.822802","name":"bubur ayam sunda paling ruhay","description (produk)":"makanan berat (bubur)","tenant_type (umkm/franchise-tetap/seasonal)":"umkm-tetap","period (tahun/bulan/minggu)":"8 tahun","transaction_per_day (ribu/juta/milliar)":"8 juta","tenant_area (meters squared)":"4 m x 10 m","target_market (pejalan kaki, pekerja kantoran, warga)":"pekerja kantoran, warga","revenue_per_month":"240 juta","transaction_per_buyer":"30 ribu","rent_trend":"0 %","rent_price_annual":"100 juta/tahun","rent_expiry_date":"none","tanggal_survey":"18-Agu-2026","kondisi_bangunan":"bagus","moda_terhubung":"MRT","jarak_ke_stasiun_meter":"27"}},{"type":"Feature","geometry":{"type":"Point","coordinates":[106.822779,-6.202307,0]},"properties":{"id":"30","latitude":"-6.202307","longitude":"106.822779","name":"ponut donat kentang","description (produk)":"snacks (donat)","tenant_type (umkm/franchise-tetap/seasonal)":"umkm-tetap","period (tahun/bulan/minggu)":"2 bulan","transaction_per_day (ribu/juta/milliar)":"7 juta","tenant_area (meters squared)":"3 m x 3 m","target_market (pejalan kaki, pekerja kantoran, warga)":"pekerja kantoran, warga","revenue_per_month":"180 juta","transaction_per_buyer":"50 ribu","rent_trend":"0 %","rent_price_annual":"800 ribu/bulan","rent_expiry_date":"none","tanggal_survey":"19-Agu-2026","kondisi_bangunan":"bagus","moda_terhubung":"MRT","jarak_ke_stasiun_meter":"25"}},{"type":"Feature","geometry":{"type":"Point","coordinates":[106.822764,-6.202289,0]},"properties":{"id":"31","latitude":"-6.202289","longitude":"106.822764","name":"auntie annes","description (produk)":"bakery, dessert","tenant_type (umkm/franchise-tetap/seasonal)":"umkm-tetap","period (tahun/bulan/minggu)":"2 tahun","transaction_per_day (ribu/juta/milliar)":"9 juta","tenant_area (meters squared)":"3.5 m x 3 m","target_market (pejalan kaki, pekerja kantoran, warga)":"pekerja kantoran, pejalan kaki","revenue_per_month":"200 juta","transaction_per_buyer":"60 ribu","rent_trend":"0 %","rent_price_annual":"1.3 juta/bulan","rent_expiry_date":"none","tanggal_survey":"20-Agu-2026","kondisi_bangunan":"bagus","moda_terhubung":"MRT","jarak_ke_stasiun_meter":"23"}},{"type":"Feature","geometry":{"type":"Point","coordinates":[106.822787,-6.202321,0]},"properties":{"id":"32","latitude":"-6.202321","longitude":"106.822787","name":"koi","description (produk)":"minuman, dessert","tenant_type (umkm/franchise-tetap/seasonal)":"umkm-tetap","period (tahun/bulan/minggu)":"5 tahun","transaction_per_day (ribu/juta/milliar)":"7.5 juta","tenant_area (meters squared)":"4 m x 4 m","target_market (pejalan kaki, pekerja kantoran, warga)":"pekerja kantoran, pejalan kaki","revenue_per_month":"220 juta","transaction_per_buyer":"40 ribu","rent_trend":"0 %","rent_price_annual":"1 juta/bulan","rent_expiry_date":"none","tanggal_survey":"21-Agu-2026","kondisi_bangunan":"bagus","moda_terhubung":"MRT","jarak_ke_stasiun_meter":"26"}},{"type":"Feature","geometry":{"type":"Point","coordinates":[106.822829,-6.202304,0]},"properties":{"id":"33","latitude":"-6.202304","longitude":"106.822829","name":"gaga","description (produk)":"minuman, dessert","tenant_type (umkm/franchise-tetap/seasonal)":"umkm-tetap","period (tahun/bulan/minggu)":"6 bulan","transaction_per_day (ribu/juta/milliar)":"9.5 juta","tenant_area (meters squared)":"4 m x 4 m","target_market (pejalan kaki, pekerja kantoran, warga)":"pekerja kantoran, pejalan kaki","revenue_per_month":"250 juta","transaction_per_buyer":"40 ribu","rent_trend":"0 %","rent_price_annual":"1.2 juta/bulan","rent_expiry_date":"none","tanggal_survey":"22-Agu-2026","kondisi_bangunan":"bagus","moda_terhubung":"MRT","jarak_ke_stasiun_meter":"30"}},{"type":"Feature","geometry":{"type":"Point","coordinates":[106.822801,-6.20233,0]},"properties":{"id":"34","latitude":"-6.20233","longitude":"106.822801","name":"mochi mochio","description (produk)":"bakery, dessert","tenant_type (umkm/franchise-tetap/seasonal)":"umkm-tetap","period (tahun/bulan/minggu)":"4 bulan","transaction_per_day (ribu/juta/milliar)":"8 juta","tenant_area (meters squared)":"3 m x 3 m","target_market (pejalan kaki, pekerja kantoran, warga)":"pekerja kantoran, pejalan kaki","revenue_per_month":"200 juta","transaction_per_buyer":"35 ribu","rent_trend":"0 %","rent_price_annual":"1.1 juta/bulan","rent_expiry_date":"none","tanggal_survey":"23-Agu-2026","kondisi_bangunan":"bagus","moda_terhubung":"MRT","jarak_ke_stasiun_meter":"28"}},{"type":"Feature","geometry":{"type":"Point","coordinates":[106.822755,-6.202291,0]},"properties":{"id":"35","latitude":"-6.202291","longitude":"106.822755","name":"honey bakery loaf","description (produk)":"bakery","tenant_type (umkm/franchise-tetap/seasonal)":"umkm-tetap","period (tahun/bulan/minggu)":"1 tahun","transaction_per_day (ribu/juta/milliar)":"5 juta","tenant_area (meters squared)":"2 m x 2 m","target_market (pejalan kaki, pekerja kantoran, warga)":"pekerja kantoran, pejalan kaki","revenue_per_month":"120 juta","transaction_per_buyer":"25 ribu","rent_trend":"0 %","rent_price_annual":"800 ribu/bulan","rent_expiry_date":"none","tanggal_survey":"24-Agu-2026","kondisi_bangunan":"bagus","moda_terhubung":"MRT","jarak_ke_stasiun_meter":"22"}},{"type":"Feature","geometry":{"type":"Point","coordinates":[106.822767,-6.202289,0]},"properties":{"id":"36","latitude":"-6.202289","longitude":"106.822767","name":"masakan padang sederhana","description (produk)":"makanan berat (nasi)","tenant_type (umkm/franchise-tetap/seasonal)":"umkm-tetap","period (tahun/bulan/minggu)":"6 tahun","transaction_per_day (ribu/juta/milliar)":"1 juta","tenant_area (meters squared)":"3 m x 10 m","target_market (pejalan kaki, pekerja kantoran, warga)":"pekerja kantoran, warga","revenue_per_month":"12 juta","transaction_per_buyer":"25 ribu","rent_trend":"0%","rent_price_annual":"50 juta/tahun","rent_expiry_date":"none","tanggal_survey":"25-Agu-2026","kondisi_bangunan":"bagus","moda_terhubung":"MRT","jarak_ke_stasiun_meter":"23"}},{"type":"Feature","geometry":{"type":"Point","coordinates":[106.822845,-6.202343,0]},"properties":{"id":"37","latitude":"-6.202343","longitude":"106.822845","name":"soto betawi","description (produk)":"makanan berat (soto)","tenant_type (umkm/franchise-tetap/seasonal)":"umkm-tetap","period (tahun/bulan/minggu)":"5 tahun","transaction_per_day (ribu/juta/milliar)":"800 ribu","tenant_area (meters squared)":"3 m x 10 m","target_market (pejalan kaki, pekerja kantoran, warga)":"pekerja kantoran, warga","revenue_per_month":"10 juta","transaction_per_buyer":"30 ribu","rent_trend":"0 %","rent_price_annual":"50 juta/tahun","rent_expiry_date":"none","tanggal_survey":"26-Agu-2026","kondisi_bangunan":"bagus","moda_terhubung":"MRT","jarak_ke_stasiun_meter":"33"}},{"type":"Feature","geometry":{"type":"Point","coordinates":[106.822831,-6.202253,0]},"properties":{"id":"38","latitude":"-6.202253","longitude":"106.822831","name":"nona tjioe","description (produk)":"makanan berat","tenant_type (umkm/franchise-tetap/seasonal)":"umkm-tetap","period (tahun/bulan/minggu)":"9 tahun","transaction_per_day (ribu/juta/milliar)":"4 juta","tenant_area (meters squared)":"3 m x 4 m","target_market (pejalan kaki, pekerja kantoran, warga)":"pekerja kantoran, pejalan kaki, warga","revenue_per_month":"100 juta","transaction_per_buyer":"40 ribu","rent_trend":"0%","rent_price_annual":"20 juta/tahun","rent_expiry_date":"none","tanggal_survey":"27-Agu-2026","kondisi_bangunan":"bagus","moda_terhubung":"MRT","jarak_ke_stasiun_meter":"30"}},{"type":"Feature","geometry":{"type":"Point","coordinates":[106.82276,-6.20232,0]},"properties":{"id":"39","latitude":"-6.20232","longitude":"106.82276","name":"tekakla klappertaart","description (produk)":"bakery, dessert","tenant_type (umkm/franchise-tetap/seasonal)":"umkm-tetap","period (tahun/bulan/minggu)":"6 tahun","transaction_per_day (ribu/juta/milliar)":"3.5 juta","tenant_area (meters squared)":"4 m x 4 m","target_market (pejalan kaki, pekerja kantoran, warga)":"pekerja kantoran, pejalan kaki, warga","revenue_per_month":"90 juta","transaction_per_buyer":"30 ribu","rent_trend":"0%","rent_price_annual":"20 juta/tahun","rent_expiry_date":"none","tanggal_survey":"28-Agu-2026","kondisi_bangunan":"bagus","moda_terhubung":"MRT","jarak_ke_stasiun_meter":"23"}},{"type":"Feature","geometry":{"type":"Point","coordinates":[106.822794,-6.202282,0]},"properties":{"id":"40","latitude":"-6.202282","longitude":"106.822794","name":"sansday","description (produk)":"makanan berat (nasi)","tenant_type (umkm/franchise-tetap/seasonal)":"umkm-tetap","period (tahun/bulan/minggu)":"6 tahun","transaction_per_day (ribu/juta/milliar)":"4 juta","tenant_area (meters squared)":"4 m x 4 m","target_market (pejalan kaki, pekerja kantoran, warga)":"pekerja kantoran, pejalan kaki, warga","revenue_per_month":"95 juta","transaction_per_buyer":"35 ribu","rent_trend":"0%","rent_price_annual":"20 juta/tahun","rent_expiry_date":"none","tanggal_survey":"29-Agu-2026","kondisi_bangunan":"bagus","moda_terhubung":"MRT","jarak_ke_stasiun_meter":"26"}},{"type":"Feature","geometry":{"type":"Point","coordinates":[106.8228,-6.202338,0]},"properties":{"id":"41","latitude":"-6.202338","longitude":"106.8228","name":"bakmie kasih","description (produk)":"makanan berat (mie)","tenant_type (umkm/franchise-tetap/seasonal)":"umkm-tetap","period (tahun/bulan/minggu)":"4 tahun","transaction_per_day (ribu/juta/milliar)":"3.5 juta","tenant_area (meters squared)":"5 m x 5 m","target_market (pejalan kaki, pekerja kantoran, warga)":"pekerja kantoran, pejalan kaki, warga","revenue_per_month":"85 juta","transaction_per_buyer":"30 ribu","rent_trend":"0%","rent_price_annual":"20 juta/tahun","rent_expiry_date":"none","tanggal_survey":"30-Agu-2026","kondisi_bangunan":"bagus","moda_terhubung":"MRT","jarak_ke_stasiun_meter":"28"}},{"type":"Feature","geometry":{"type":"Point","coordinates":[106.799821055007,-6.24383569118652,0]},"properties":{"id":"42","latitude":"-6.24383569118652","longitude":"106.799821055007","name":"Lawless Donuts","description (produk)":"Kedai donat dan kopi kekinian","tenant_type (umkm/franchise-tetap/seasonal)":"UMKM tetap","period (tahun/bulan/minggu)":"2 tahun","transaction_per_day (ribu/juta/milliar)":"Rp 4.000.000 / hari","tenant_area (meters squared)":"6 m x 5 m","target_market (pejalan kaki, pekerja kantoran, warga)":"Anak muda, pengunjung kawasan Blok M","revenue_per_month":"100 juta","transaction_per_buyer":"35 ribu","rent_trend":"0%","rent_price_annual":"13 juta/bulan","rent_expiry_date":"none","tanggal_survey":"31-Agu-2026","kondisi_bangunan":"bagus","moda_terhubung":"MRT","jarak_ke_stasiun_meter":"173"}},{"type":"Feature","geometry":{"type":"Point","coordinates":[106.800640278938,-6.2439912051222,0]},"properties":{"id":"43","latitude":"-6.2439912051222","longitude":"106.800640278938","name":"Love Cheese","description (produk)":"Makanan penutup (kue dan hidangan berbahan dasar keju)","tenant_type (umkm/franchise-tetap/seasonal)":"UMKM tetap","period (tahun/bulan/minggu)":"1 tahun","transaction_per_day (ribu/juta/milliar)":"Rp 3.500.000 / hari","tenant_area (meters squared)":"7 m x 5 m","target_market (pejalan kaki, pekerja kantoran, warga)":"Gen Z, masyarakat kulineran malam","revenue_per_month":"120 juta","transaction_per_buyer":"45 ribu","rent_trend":"0%","rent_price_annual":"60 juta/tahun","rent_expiry_date":"none","tanggal_survey":"31-Agu-2026","kondisi_bangunan":"bagus","moda_terhubung":"MRT","jarak_ke_stasiun_meter":"178"}},{"type":"Feature","geometry":{"type":"Point","coordinates":[106.800715380791,-6.24403186615641,0]},"properties":{"id":"44","latitude":"-6.24403186615641","longitude":"106.800715380791","name":"Osaka Takoyaki Blok M","description (produk)":"Jajanan jejepangan (takoyaki isi mozzarella/keju)","tenant_type (umkm/franchise-tetap/seasonal)":"UMKM tetap","period (tahun/bulan/minggu)":"3 tahun","transaction_per_day (ribu/juta/milliar)":"Rp 2.000.000 / hari","tenant_area (meters squared)":"8 m x 5 m","target_market (pejalan kaki, pekerja kantoran, warga)":"Pengunjung area Melawai, pecinta kuliner","revenue_per_month":"105 juta","transaction_per_buyer":"50 ribu","rent_trend":"0%","rent_price_annual":"1.3 juta/bulan","rent_expiry_date":"none","tanggal_survey":"31-Agu-2026","kondisi_bangunan":"bagus","moda_terhubung":"MRT","jarak_ke_stasiun_meter":"178"}},{"type":"Feature","geometry":{"type":"Point","coordinates":[106.80064094949,-6.24401120235253,0]},"properties":{"id":"45","latitude":"-6.24401120235253","longitude":"106.80064094949","name":"Nasi Dendeng Minang Pride","description (produk)":"Spesialisasi dendeng batokok","tenant_type (umkm/franchise-tetap/seasonal)":"UMKM tetap","period (tahun/bulan/minggu)":"2 tahun","transaction_per_day (ribu/juta/milliar)":"Rp 8.000.000 / hari","tenant_area (meters squared)":"9 m x 5 m","target_market (pejalan kaki, pekerja kantoran, warga)":"Pekerja kantoran, rombongan keluarga","revenue_per_month":"60 juta","transaction_per_buyer":"60 ribu","rent_trend":"0%","rent_price_annual":"40 juta/tahun","rent_expiry_date":"none","tanggal_survey":"31-Agu-2026","kondisi_bangunan":"bagus","moda_terhubung":"MRT","jarak_ke_stasiun_meter":"175"}},{"type":"Feature","geometry":{"type":"Point","coordinates":[106.800713369134,-6.24399587114268,0]},"properties":{"id":"46","latitude":"-6.24399587114268","longitude":"106.800713369134","name":"Thai Longan","description (produk)":"Minuman (Ice Longan Pandan, sari buah murni)","tenant_type (umkm/franchise-tetap/seasonal)":"UMKM musiman","period (tahun/bulan/minggu)":"Musiman (Event Kyoto Seoul)","transaction_per_day (ribu/juta/milliar)":"Rp 2.500.000 - Rp 6.000.000 / hari","tenant_area (meters squared)":"10 m x 5 m","target_market (pejalan kaki, pekerja kantoran, warga)":"Pengunjung event outdoor","revenue_per_month":"240 juta","transaction_per_buyer":"55 ribu","rent_trend":"0%","rent_price_annual":"13 juta/bulan","rent_expiry_date":"none","tanggal_survey":"23-Agu-2026","kondisi_bangunan":"bagus","moda_terhubung":"MRT","jarak_ke_stasiun_meter":"177"}},{"type":"Feature","geometry":{"type":"Point","coordinates":[106.800715380791,-6.24398253965548,0]},"properties":{"id":"47","latitude":"-6.24398253965548","longitude":"106.800715380791","name":"Rujak Kecut Merinding","description (produk)":"Olahan buah & asinan (Rujak Bumbu Bangkok, Asinan)","tenant_type (umkm/franchise-tetap/seasonal)":"UMKM musiman","period (tahun/bulan/minggu)":"Musiman (Event)","transaction_per_day (ribu/juta/milliar)":"Rp 2.500.000 / hari","tenant_area (meters squared)":"11 m x 5 m","target_market (pejalan kaki, pekerja kantoran, warga)":"Remaja, perempuan pengunjung festival","revenue_per_month":"127.5 juta","transaction_per_buyer":"40 ribu","rent_trend":"0%","rent_price_annual":"3.5 juta/event","rent_expiry_date":"none","tanggal_survey":"31-Agu-2026","kondisi_bangunan":"bagus","moda_terhubung":"MRT","jarak_ke_stasiun_meter":"175"}},{"type":"Feature","geometry":{"type":"Point","coordinates":[106.800646929037,-6.24397746395066,0]},"properties":{"id":"48","latitude":"-6.24397746395066","longitude":"106.800646929037","name":"Gomu Gomu Nikkudon","description (produk)":"Rice bowl daging sapi (Gyu Steak Gomudon, dll)","tenant_type (umkm/franchise-tetap/seasonal)":"UMKM musiman","period (tahun/bulan/minggu)":"Musiman (Event festival kuliner)","transaction_per_day (ribu/juta/milliar)":"Rp 3.000.000 / hari","tenant_area (meters squared)":"12 m x 5 m","target_market (pejalan kaki, pekerja kantoran, warga)":"Anak muda, pecinta kuliner Jepang","revenue_per_month":"75 juta","transaction_per_buyer":"65 ribu","rent_trend":"0%","rent_price_annual":"6 Juta/event","rent_expiry_date":"none","tanggal_survey":"31-Agu-2026","kondisi_bangunan":"bagus","moda_terhubung":"MRT","jarak_ke_stasiun_meter":"174"}},{"type":"Feature","geometry":{"type":"Point","coordinates":[106.800032593309,-6.2440509115589,0]},"properties":{"id":"49","latitude":"-6.2440509115589","longitude":"106.800032593309","name":"Little Wok Asean","description (produk)":"Olahan mi & nasi (Char Kuey Teow, Nasi Gila Penang)","tenant_type (umkm/franchise-tetap/seasonal)":"UMKM musiman","period (tahun/bulan/minggu)":"Musiman (Event Kyoto Seoul)","transaction_per_day (ribu/juta/milliar)":"Rp 3.000.000 - Rp 3.500.000 / hari","tenant_area (meters squared)":"13 m x 5 m","target_market (pejalan kaki, pekerja kantoran, warga)":"Masyarakat umum, pecinta kuliner Asia","revenue_per_month":"90 juta","transaction_per_buyer":"35 ribu","rent_trend":"0%","rent_price_annual":"7 Juta/event","rent_expiry_date":"none","tanggal_survey":"31-Agu-2026","kondisi_bangunan":"bagus","moda_terhubung":"MRT","jarak_ke_stasiun_meter":"173"}},{"type":"Feature","geometry":{"type":"Point","coordinates":[106.799914177118,-6.24409436556729,0]},"properties":{"id":"50","latitude":"-6.24409436556729","longitude":"106.799914177118","name":"Mie Tek Tek Sultan","description (produk)":"Makanan berat (kwetiau, nasi goreng)","tenant_type (umkm/franchise-tetap/seasonal)":"umkm-seasonal","period (tahun/bulan/minggu)":"2-3 tahun","transaction_per_day (ribu/juta/milliar)":"1-2 juta weekday, 2-3 juta weekend","tenant_area (meters squared)":"14 m x 5 m","target_market (pejalan kaki, pekerja kantoran, warga)":"Warga, pejalan kaki, pekerja kantoran","revenue_per_month":"97.5 juta","transaction_per_buyer":"45 ribu","rent_trend":"0%","rent_price_annual":"29,250,004/event","rent_expiry_date":"none","tanggal_survey":"23-Agu-2026","kondisi_bangunan":"bagus","moda_terhubung":"MRT","jarak_ke_stasiun_meter":"177"}},{"type":"Feature","geometry":{"type":"Point","coordinates":[106.799958583127,-6.24408849999998,0]},"properties":{"id":"51","latitude":"-6.24408849999998","longitude":"106.799958583127","name":"MakanQu","description (produk)":"Makanan berat (nasi, mie)","tenant_type (umkm/franchise-tetap/seasonal)":"umkm-tetap","period (tahun/bulan/minggu)":"3 tahun","transaction_per_day (ribu/juta/milliar)":"4-6 juta/hari","tenant_area (meters squared)":"15 m x 5 m","target_market (pejalan kaki, pekerja kantoran, warga)":"Pejalan kaki, pekerja kantoran","revenue_per_month":"53 juta","transaction_per_buyer":"30 ribu","rent_trend":"0%","rent_price_annual":"4 Juta/event","rent_expiry_date":"none","tanggal_survey":"31-Agu-2026","kondisi_bangunan":"bagus","moda_terhubung":"MRT","jarak_ke_stasiun_meter":"173"}},{"type":"Feature","geometry":{"type":"Point","coordinates":[106.799961265336,-6.24410583092977,0]},"properties":{"id":"52","latitude":"-6.24410583092977","longitude":"106.799961265336","name":"Nyonya Tebu","description (produk)":"Minuman (tebu varian leci, yakult)","tenant_type (umkm/franchise-tetap/seasonal)":"umkm-seasonal","period (tahun/bulan/minggu)":"2 minggu","transaction_per_day (ribu/juta/milliar)":"1 juta weekday, 2-3 juta weekend","tenant_area (meters squared)":"16 m x 5 m","target_market (pejalan kaki, pekerja kantoran, warga)":"Warga, pejalan kaki, pekerja kantoran","revenue_per_month":"150 juta","transaction_per_buyer":"45 ribu","rent_trend":"0%","rent_price_annual":"49 juta/bulan","rent_expiry_date":"none","tanggal_survey":"23-Agu-2026","kondisi_bangunan":"bagus","moda_terhubung":"MRT","jarak_ke_stasiun_meter":"176"}},{"type":"Feature","geometry":{"type":"Point","coordinates":[106.799926396619,-6.24405983730716,0]},"properties":{"id":"53","latitude":"-6.24405983730716","longitude":"106.799926396619","name":"Thai Tea Dong Ca Phe","description (produk)":"Minuman (thai tea)","tenant_type (umkm/franchise-tetap/seasonal)":"umkm-seasonal","period (tahun/bulan/minggu)":"2-3 tahun","transaction_per_day (ribu/juta/milliar)":"4-5 juta weekday, 10-15 juta weekend","tenant_area (meters squared)":"17 m x 5 m","target_market (pejalan kaki, pekerja kantoran, warga)":"Warga, pejalan kaki, pekerja kantoran","revenue_per_month":"42 juta","transaction_per_buyer":"50 ribu","rent_trend":"0%","rent_price_annual":"16.6 Juta","rent_expiry_date":"none","tanggal_survey":"23-Agu-2026","kondisi_bangunan":"bagus","moda_terhubung":"MRT","jarak_ke_stasiun_meter":"172"}},{"type":"Feature","geometry":{"type":"Point","coordinates":[106.79993578435,-6.24402250914673,0]},"properties":{"id":"54","latitude":"-6.24402250914673","longitude":"106.79993578435","name":"Nongnooch Thai Mango","description (produk)":"Minuman (thai tea mangga)","tenant_type (umkm/franchise-tetap/seasonal)":"umkm-seasonal","period (tahun/bulan/minggu)":"5-6 bulan","transaction_per_day (ribu/juta/milliar)":"7-8 juta weekday, 10-15 juta weekend","tenant_area (meters squared)":"18 m x 5 m","target_market (pejalan kaki, pekerja kantoran, warga)":"Warga, pejalan kaki, pekerja kantoran","revenue_per_month":"199 juta","transaction_per_buyer":"50 ribu","rent_trend":"0%","rent_price_annual":"63.7 Juta","rent_expiry_date":"none","tanggal_survey":"23-Agu-2026","kondisi_bangunan":"bagus","moda_terhubung":"MRT","jarak_ke_stasiun_meter":"175"}},{"type":"Feature","geometry":{"type":"Point","coordinates":[106.799929078828,-6.24411849583962,0]},"properties":{"id":"55","latitude":"-6.24411849583962","longitude":"106.799929078828","name":"Salmon Ochazuke","description (produk)":"Makanan berat (salmon, seafood)","tenant_type (umkm/franchise-tetap/seasonal)":"umkm-seasonal","period (tahun/bulan/minggu)":"2 minggu","transaction_per_day (ribu/juta/milliar)":"1 juta low traffic, 2-3 juta high","tenant_area (meters squared)":"19 m x 5 m","target_market (pejalan kaki, pekerja kantoran, warga)":"Warga, pejalan kaki, pekerja kantoran","revenue_per_month":"265 juta","transaction_per_buyer":"60 ribu","rent_trend":"0%","rent_price_annual":"83.5 Juta","rent_expiry_date":"none","tanggal_survey":"23-Agu-2026","kondisi_bangunan":"bagus","moda_terhubung":"MRT","jarak_ke_stasiun_meter":"172"}},{"type":"Feature","geometry":{"type":"Point","coordinates":[106.79992371441,-6.24412716130408,0]},"properties":{"id":"56","latitude":"-6.24412716130408","longitude":"106.79992371441","name":"Kantin Pojok","description (produk)":"Makanan berat & minuman","tenant_type (umkm/franchise-tetap/seasonal)":"umkm-tetap","period (tahun/bulan/minggu)":"8 tahun","transaction_per_day (ribu/juta/milliar)":"3.5-5 juta/hari","tenant_area (meters squared)":"20 m x 5 m","target_market (pejalan kaki, pekerja kantoran, warga)":"Pejalan kaki, pekerja kantoran","revenue_per_month":"42 juta","transaction_per_buyer":"55 ribu","rent_trend":"0%","rent_price_annual":"2 Juta","rent_expiry_date":"none","tanggal_survey":"30-Agu-2026","kondisi_bangunan":"bagus","moda_terhubung":"MRT","jarak_ke_stasiun_meter":"170"}},{"type":"Feature","geometry":{"type":"Point","coordinates":[106.79992371441,-6.2441671557536,0]},"properties":{"id":"57","latitude":"-6.2441671557536","longitude":"106.79992371441","name":"Acoconut","description (produk)":"Dessert & minuman kelapa","tenant_type (umkm/franchise-tetap/seasonal)":"umkm-tetap","period (tahun/bulan/minggu)":"4-6 bulan","transaction_per_day (ribu/juta/milliar)":"2-3 juta weekday, 4-5 juta weekend","tenant_area (meters squared)":"21 m x 5 m","target_market (pejalan kaki, pekerja kantoran, warga)":"Pejalan kaki, pekerja kantoran","revenue_per_month":"127.5 juta","transaction_per_buyer":"40 ribu","rent_trend":"0%","rent_price_annual":"1.25 Juta","rent_expiry_date":"none","tanggal_survey":"31-Agu-2026","kondisi_bangunan":"bagus","moda_terhubung":"MRT","jarak_ke_stasiun_meter":"170"}},{"type":"Feature","geometry":{"type":"Point","coordinates":[106.799955900918,-6.24414649195506,0]},"properties":{"id":"58","latitude":"-6.24414649195506","longitude":"106.799955900918","name":"Rumah Makan Son Masakan Padang","description (produk)":"Makanan berat (padang)","tenant_type (umkm/franchise-tetap/seasonal)":"umkm-tetap","period (tahun/bulan/minggu)":"9 tahun","transaction_per_day (ribu/juta/milliar)":"3-4 juta weekday, 5-6 juta weekend","tenant_area (meters squared)":"22 m x 5 m","target_market (pejalan kaki, pekerja kantoran, warga)":"Pejalan kaki, pekerja kantoran","revenue_per_month":"91 juta","transaction_per_buyer":"45 ribu","rent_trend":"0%","rent_price_annual":"40 Juta","rent_expiry_date":"none","tanggal_survey":"30-Agu-2026","kondisi_bangunan":"bagus","moda_terhubung":"MRT","jarak_ke_stasiun_meter":"171"}},{"type":"Feature","geometry":{"type":"Point","coordinates":[106.799924247991,-6.24419382819908,0]},"properties":{"id":"59","latitude":"-6.24419382819908","longitude":"106.799924247991","name":"Its a Coin","description (produk)":"Dessert (roti)","tenant_type (umkm/franchise-tetap/seasonal)":"umkm-seasonal","period (tahun/bulan/minggu)":"3 tahun","transaction_per_day (ribu/juta/milliar)":"2-3 juta weekday, 7 juta weekend","tenant_area (meters squared)":"23 m x 5 m","target_market (pejalan kaki, pekerja kantoran, warga)":"Warga, pejalan kaki, pekerja kantoran","revenue_per_month":"121 juta","transaction_per_buyer":"60 ribu","rent_trend":"0%","rent_price_annual":"40.3 Juta","rent_expiry_date":"none","tanggal_survey":"23-Agu-2026","kondisi_bangunan":"bagus","moda_terhubung":"MRT","jarak_ke_stasiun_meter":"172"}},{"type":"Feature","geometry":{"type":"Point","coordinates":[106.799953081738,-6.24420249366229,0]},"properties":{"id":"60","latitude":"-6.24420249366229","longitude":"106.799953081738","name":"Tahu Go","description (produk)":"Makanan ringan (tahu goreng seasoning)","tenant_type (umkm/franchise-tetap/seasonal)":"umkm-tetap","period (tahun/bulan/minggu)":"1 bulan","transaction_per_day (ribu/juta/milliar)":"500 ribu weekday, 1 juta weekend","tenant_area (meters squared)":"24 m x 5 m","target_market (pejalan kaki, pekerja kantoran, warga)":"Warga, pejalan kaki, pekerja kantoran","revenue_per_month":"111 juta","transaction_per_buyer":"50 ribu","rent_trend":"0%","rent_price_annual":"2.5 Juta","rent_expiry_date":"none","tanggal_survey":"23-Agu-2026","kondisi_bangunan":"bagus","moda_terhubung":"MRT","jarak_ke_stasiun_meter":"173"}},{"type":"Feature","geometry":{"type":"Point","coordinates":[106.799922906886,-6.24422582375486,0]},"properties":{"id":"61","latitude":"-6.24422582375486","longitude":"106.799922906886","name":"Seblak Neng Prasmanan","description (produk)":"Makanan berat (seblak)","tenant_type (umkm/franchise-tetap/seasonal)":"umkm-tetap","period (tahun/bulan/minggu)":"7 bulan","transaction_per_day (ribu/juta/milliar)":"2-2.5 juta weekday, 5-6 juta weekend","tenant_area (meters squared)":"25 m x 5 m","target_market (pejalan kaki, pekerja kantoran, warga)":"Warga, pejalan kaki, pekerja kantoran","revenue_per_month":"19 juta","transaction_per_buyer":"55 ribu","rent_trend":"0%","rent_price_annual":"1.25 Juta","rent_expiry_date":"none","tanggal_survey":"23-Agu-2026","kondisi_bangunan":"bagus","moda_terhubung":"MRT","jarak_ke_stasiun_meter":"173"}},{"type":"Feature","geometry":{"type":"Point","coordinates":[106.799951740633,-6.24428914828659,0]},"properties":{"id":"62","latitude":"-6.24428914828659","longitude":"106.799951740633","name":"Thai Banana Pancake","description (produk)":"Makanan ringan (pancake)","tenant_type (umkm/franchise-tetap/seasonal)":"umkm-tetap","period (tahun/bulan/minggu)":"1 tahun","transaction_per_day (ribu/juta/milliar)":"1.5-2 juta weekday, 3-4 juta weekend","tenant_area (meters squared)":"26 m x 5 m","target_market (pejalan kaki, pekerja kantoran, warga)":"Warga, pejalan kaki, pekerja kantoran","revenue_per_month":"93.5 juta","transaction_per_buyer":"45 ribu","rent_trend":"0%","rent_price_annual":"1.25 Juta","rent_expiry_date":"none","tanggal_survey":"23-Agu-2026","kondisi_bangunan":"bagus","moda_terhubung":"MRT","jarak_ke_stasiun_meter":"174"}},{"type":"Feature","geometry":{"type":"Point","coordinates":[106.799919554125,-6.2442964806003,0]},"properties":{"id":"63","latitude":"-6.2442964806003","longitude":"106.799919554125","name":"Makaroni Ngene","description (produk)":"Makanan ringan (makaroni, mie, basreng)","tenant_type (umkm/franchise-tetap/seasonal)":"umkm-tetap","period (tahun/bulan/minggu)":"1 tahun","transaction_per_day (ribu/juta/milliar)":"800 ribu weekday, 2 juta weekend","tenant_area (meters squared)":"27 m x 5 m","target_market (pejalan kaki, pekerja kantoran, warga)":"Warga, pejalan kaki, pekerja kantoran","revenue_per_month":"66.5 juta","transaction_per_buyer":"45 ribu","rent_trend":"0%","rent_price_annual":"1.25 Juta","rent_expiry_date":"none","tanggal_survey":"23-Agu-2026","kondisi_bangunan":"bagus","moda_terhubung":"MRT","jarak_ke_stasiun_meter":"175"}},{"type":"Feature","geometry":{"type":"Point","coordinates":[106.799952411186,-6.24429714717426,0]},"properties":{"id":"64","latitude":"-6.24429714717426","longitude":"106.799952411186","name":"Salmon Mentaiku","description (produk)":"Makanan ringan (mentai, chicken katsu)","tenant_type (umkm/franchise-tetap/seasonal)":"umkm-tetap","period (tahun/bulan/minggu)":"3 bulan","transaction_per_day (ribu/juta/milliar)":"1.2 juta weekday, 2.5 juta weekend","tenant_area (meters squared)":"28 m x 5 m","target_market (pejalan kaki, pekerja kantoran, warga)":"Warga, pejalan kaki, pekerja kantoran","revenue_per_month":"33.6 juta","transaction_per_buyer":"55 ribu","rent_trend":"0%","rent_price_annual":"1.25 Juta","rent_expiry_date":"none","tanggal_survey":"23-Agu-2026","kondisi_bangunan":"bagus","moda_terhubung":"MRT","jarak_ke_stasiun_meter":"176"}},{"type":"Feature","geometry":{"type":"Point","coordinates":[106.799919554125,-6.24430314633994,0]},"properties":{"id":"65","latitude":"-6.24430314633994","longitude":"106.799919554125","name":"Jeruk Peras Oppa","description (produk)":"Minuman (jeruk peras, air mineral)","tenant_type (umkm/franchise-tetap/seasonal)":"umkm-tetap","period (tahun/bulan/minggu)":"1.5 tahun","transaction_per_day (ribu/juta/milliar)":"1 juta weekday, 4 juta weekend","tenant_area (meters squared)":"29 m x 5 m","target_market (pejalan kaki, pekerja kantoran, warga)":"Warga, pejalan kaki, pekerja kantoran","revenue_per_month":"46.4 juta","transaction_per_buyer":"40 ribu","rent_trend":"0%","rent_price_annual":"2.5 Juta","rent_expiry_date":"none","tanggal_survey":"23-Agu-2026","kondisi_bangunan":"bagus","moda_terhubung":"MRT","jarak_ke_stasiun_meter":"177"}},{"type":"Feature","geometry":{"type":"Point","coordinates":[106.799950399529,-6.2443124783753,0]},"properties":{"id":"66","latitude":"-6.2443124783753","longitude":"106.799950399529","name":"Spagesteak","description (produk)":"Makanan berat (steak daging)","tenant_type (umkm/franchise-tetap/seasonal)":"umkm-seasonal","period (tahun/bulan/minggu)":"2 minggu","transaction_per_day (ribu/juta/milliar)":"3 juta weekday, 5-6 juta weekend","tenant_area (meters squared)":"30 m x 5 m","target_market (pejalan kaki, pekerja kantoran, warga)":"Warga, pejalan kaki, pekerja kantoran","revenue_per_month":"54 juta","transaction_per_buyer":"60 ribu","rent_trend":"0%","rent_price_annual":"20.2 Juta","rent_expiry_date":"none","tanggal_survey":"23-Agu-2026","kondisi_bangunan":"bagus","moda_terhubung":"MRT","jarak_ke_stasiun_meter":"181"}},{"type":"Feature","geometry":{"type":"Point","coordinates":[106.799918883573,-6.24434980651507,0]},"properties":{"id":"67","latitude":"-6.24434980651507","longitude":"106.799918883573","name":"Dimsum Lumer & Juicy Goza","description (produk)":"Makanan ringan (dimsum mentai)","tenant_type (umkm/franchise-tetap/seasonal)":"umkm-seasonal","period (tahun/bulan/minggu)":"2 tahun","transaction_per_day (ribu/juta/milliar)":"3-4 juta weekday, 5-6 juta weekend","tenant_area (meters squared)":"31 m x 5 m","target_market (pejalan kaki, pekerja kantoran, warga)":"Warga, pejalan kaki, pekerja kantoran","revenue_per_month":"110 juta","transaction_per_buyer":"45 ribu","rent_trend":"0%","rent_price_annual":"37 Juta","rent_expiry_date":"none","tanggal_survey":"23-Agu-2026","kondisi_bangunan":"bagus","moda_terhubung":"MRT","jarak_ke_stasiun_meter":"190"}},{"type":"Feature","geometry":{"type":"Point","coordinates":[106.799956220149,-6.24437949685207,0]},"properties":{"id":"68","latitude":"-6.24437949685207","longitude":"106.799956220149","name":"Sangthai","description (produk)":"Minuman (teh, leci, milo)","tenant_type (umkm/franchise-tetap/seasonal)":"umkm-seasonal","period (tahun/bulan/minggu)":"2 minggu","transaction_per_day (ribu/juta/milliar)":"2.5 juta / hari","tenant_area (meters squared)":"32 m x 5 m","target_market (pejalan kaki, pekerja kantoran, warga)":"Warga, pejalan kaki, pekerja kantoran","revenue_per_month":"121 juta","transaction_per_buyer":"60 ribu","rent_trend":"0%","rent_price_annual":"40.3 Juta","rent_expiry_date":"none","tanggal_survey":"23-Agu-2026","kondisi_bangunan":"bagus","moda_terhubung":"MRT","jarak_ke_stasiun_meter":"186"}},{"type":"Feature","geometry":{"type":"Point","coordinates":[106.799920680879,-6.2444008272176,0]},"properties":{"id":"69","latitude":"-6.2444008272176","longitude":"106.799920680879","name":"Kuliner Bun Bun","description (produk)":"Minuman & rujak (sirup, juice)","tenant_type (umkm/franchise-tetap/seasonal)":"umkm-seasonal","period (tahun/bulan/minggu)":"22 tahun","transaction_per_day (ribu/juta/milliar)":"2 juta / hari","tenant_area (meters squared)":"33 m x 5 m","target_market (pejalan kaki, pekerja kantoran, warga)":"Warga, pejalan kaki, pekerja kantoran","revenue_per_month":"75 juta","transaction_per_buyer":"35 ribu","rent_trend":"0%","rent_price_annual":"26.5 Juta","rent_expiry_date":"none","tanggal_survey":"23-Agu-2026","kondisi_bangunan":"bagus","moda_terhubung":"MRT","jarak_ke_stasiun_meter":"188"}},{"type":"Feature","geometry":{"type":"Point","coordinates":[106.79989117658,-6.24438149657421,0]},"properties":{"id":"70","latitude":"-6.24438149657421","longitude":"106.79989117658","name":"Canggu Street Pizza","description (produk)":"Pizza slice ukuran jumbo ala Bali","tenant_type (umkm/franchise-tetap/seasonal)":"UMKM tetap","period (tahun/bulan/minggu)":"1 tahun","transaction_per_day (ribu/juta/milliar)":"Rp 2.500.000 / hari","tenant_area (meters squared)":"34 m x 5 m","target_market (pejalan kaki, pekerja kantoran, warga)":"Remaja, masyarakat umum","revenue_per_month":"60 juta","transaction_per_buyer":"40 ribu","rent_trend":"0%","rent_price_annual":"40 juta","rent_expiry_date":"none","tanggal_survey":"31-Agu-2026","kondisi_bangunan":"bagus","moda_terhubung":"MRT","jarak_ke_stasiun_meter":"190"}},{"type":"Feature","geometry":{"type":"Point","coordinates":[106.799900456402,-6.24448752604115,0]},"properties":{"id":"71","latitude":"-6.24448752604115","longitude":"106.799900456402","name":"Salmon Mentaiku","description (produk)":"Makanan ringan (mentai, chicken katsu)","tenant_type (umkm/franchise-tetap/seasonal)":"UMKM tetap","period (tahun/bulan/minggu)":"3 bulan","transaction_per_day (ribu/juta/milliar)":"1.2 juta weekday, 2.5 juta weekend","tenant_area (meters squared)":"35 m x 5 m","target_market (pejalan kaki, pekerja kantoran, warga)":"Warga, pejalan kaki, pekerja kantoran","revenue_per_month":"75 juta","transaction_per_buyer":"60 ribu","rent_trend":"0%","rent_price_annual":"1.25 Juta","rent_expiry_date":"none","tanggal_survey":"23-Agu-2026","kondisi_bangunan":"bagus","moda_terhubung":"MRT","jarak_ke_stasiun_meter":"184"}},{"type":"Feature","geometry":{"type":"Point","coordinates":[106.79990367696,-6.24451073654948,0]},"properties":{"id":"72","latitude":"-6.24451073654948","longitude":"106.79990367696","name":"Jeruk Peras Oppa","description (produk)":"Minuman (jeruk peras, air mineral)","tenant_type (umkm/franchise-tetap/seasonal)":"UMKM tetap","period (tahun/bulan/minggu)":"1.5 tahun","transaction_per_day (ribu/juta/milliar)":"1 juta weekday, 4 juta weekend","tenant_area (meters squared)":"36 m x 5 m","target_market (pejalan kaki, pekerja kantoran, warga)":"Warga, pejalan kaki, pekerja kantoran","revenue_per_month":"46.4 juta","transaction_per_buyer":"55 ribu","rent_trend":"0%","rent_price_annual":"2.5 Juta","rent_expiry_date":"none","tanggal_survey":"23-Agu-2026","kondisi_bangunan":"bagus","moda_terhubung":"MRT","jarak_ke_stasiun_meter":"185"}},{"type":"Feature","geometry":{"type":"Point","coordinates":[106.799904482099,-6.24456356046119,0]},"properties":{"id":"73","latitude":"-6.24456356046119","longitude":"106.799904482099","name":"Spagesteak","description (produk)":"Makanan berat (steak daging)","tenant_type (umkm/franchise-tetap/seasonal)":"UMKM seasonal","period (tahun/bulan/minggu)":"2 minggu","transaction_per_day (ribu/juta/milliar)":"3 juta weekday, 5-6 juta weekend","tenant_area (meters squared)":"37 m x 5 m","target_market (pejalan kaki, pekerja kantoran, warga)":"Warga, pejalan kaki, pekerja kantoran","revenue_per_month":"54 juta","transaction_per_buyer":"50 ribu","rent_trend":"0%","rent_price_annual":"20.2 Juta","rent_expiry_date":"none","tanggal_survey":"23-Agu-2026","kondisi_bangunan":"bagus","moda_terhubung":"MRT","jarak_ke_stasiun_meter":"186"}},{"type":"Feature","geometry":{"type":"Point","coordinates":[106.799907702657,-6.24459877639937,0]},"properties":{"id":"74","latitude":"-6.24459877639937","longitude":"106.799907702657","name":"Dimsum Lumer & Juicy Goza","description (produk)":"Makanan ringan (dimsum mentai)","tenant_type (umkm/franchise-tetap/seasonal)":"UMKM seasonal","period (tahun/bulan/minggu)":"2 tahun","transaction_per_day (ribu/juta/milliar)":"3-4 juta weekday, 5-6 juta weekend","tenant_area (meters squared)":"38 m x 5 m","target_market (pejalan kaki, pekerja kantoran, warga)":"Warga, pejalan kaki, pekerja kantoran","revenue_per_month":"110 juta","transaction_per_buyer":"30 ribu","rent_trend":"0%","rent_price_annual":"37 Juta","rent_expiry_date":"none","tanggal_survey":"23-Agu-2026","kondisi_bangunan":"bagus","moda_terhubung":"MRT","jarak_ke_stasiun_meter":"181"}},{"type":"Feature","geometry":{"type":"Point","coordinates":[106.799908507797,-6.24462438798928,0]},"properties":{"id":"75","latitude":"-6.24462438798928","longitude":"106.799908507797","name":"Sangthai","description (produk)":"Minuman (teh, leci, milo)","tenant_type (umkm/franchise-tetap/seasonal)":"UMKM seasonal","period (tahun/bulan/minggu)":"2 minggu","transaction_per_day (ribu/juta/milliar)":"2.5 juta / hari","tenant_area (meters squared)":"39 m x 5 m","target_market (pejalan kaki, pekerja kantoran, warga)":"Warga, pejalan kaki, pekerja kantoran","revenue_per_month":"121 juta","transaction_per_buyer":"35 ribu","rent_trend":"0%","rent_price_annual":"40.3 Juta","rent_expiry_date":"none","tanggal_survey":"23-Agu-2026","kondisi_bangunan":"bagus","moda_terhubung":"MRT","jarak_ke_stasiun_meter":"180"}},{"type":"Feature","geometry":{"type":"Point","coordinates":[106.799912608887,-6.24464794153341,0]},"properties":{"id":"76","latitude":"-6.24464794153341","longitude":"106.799912608887","name":"Kuliner Bun Bun","description (produk)":"Minuman & rujak (sirup, juice)","tenant_type (umkm/franchise-tetap/seasonal)":"UMKM seasonal","period (tahun/bulan/minggu)":"22 tahun","transaction_per_day (ribu/juta/milliar)":"2 juta / hari","tenant_area (meters squared)":"40 m x 5 m","target_market (pejalan kaki, pekerja kantoran, warga)":"Warga, pejalan kaki, pekerja kantoran","revenue_per_month":"75 juta","transaction_per_buyer":"60 ribu","rent_trend":"0%","rent_price_annual":"26.5 Juta","rent_expiry_date":"none","tanggal_survey":"23-Agu-2026","kondisi_bangunan":"bagus","moda_terhubung":"MRT","jarak_ke_stasiun_meter":"173"}},{"type":"Feature","geometry":{"type":"Point","coordinates":[106.799911267783,-6.24467260475311,0]},"properties":{"id":"77","latitude":"-6.24467260475311","longitude":"106.799911267783","name":"Mie Ayam Harum Sari","description (produk)":"Makanan berat (mie ayam)","tenant_type (umkm/franchise-tetap/seasonal)":"UMKM seasonal","period (tahun/bulan/minggu)":"Beberapa minggu","transaction_per_day (ribu/juta/milliar)":"700rb-1.1jt / hari","tenant_area (meters squared)":"41 m x 5 m","target_market (pejalan kaki, pekerja kantoran, warga)":"Pengunjung bazaar","revenue_per_month":"60 juta","transaction_per_buyer":"55 ribu","rent_trend":"0%","rent_price_annual":"22 Juta","rent_expiry_date":"none","tanggal_survey":"30-Agu-2026","kondisi_bangunan":"bagus","moda_terhubung":"MRT","jarak_ke_stasiun_meter":"178"}},{"type":"Feature","geometry":{"type":"Point","coordinates":[106.799913949992,-6.24469993426548,0]},"properties":{"id":"78","latitude":"-6.24469993426548","longitude":"106.799913949992","name":"Es Teh Sangkuriang","description (produk)":"Minuman segar (jasmine tea, lychee tea)","tenant_type (umkm/franchise-tetap/seasonal)":"UMKM seasonal","period (tahun/bulan/minggu)":"Beberapa minggu","transaction_per_day (ribu/juta/milliar)":"800rb-1.3jt / hari","tenant_area (meters squared)":"42 m x 5 m","target_market (pejalan kaki, pekerja kantoran, warga)":"Pengunjung bazaar","revenue_per_month":"27 juta","transaction_per_buyer":"35 ribu","rent_trend":"0%","rent_price_annual":"3 Juta","rent_expiry_date":"none","tanggal_survey":"30-Agu-2026","kondisi_bangunan":"bagus","moda_terhubung":"MRT","jarak_ke_stasiun_meter":"172"}},{"type":"Feature","geometry":{"type":"Point","coordinates":[106.79991931441,-6.24473059664351,0]},"properties":{"id":"79","latitude":"-6.24473059664351","longitude":"106.79991931441","name":"Potato Cheese Bomb","description (produk)":"Makanan ringan (olahan kentang)","tenant_type (umkm/franchise-tetap/seasonal)":"UMKM seasonal","period (tahun/bulan/minggu)":"Beberapa minggu","transaction_per_day (ribu/juta/milliar)":"800rb-1.1jt / hari","tenant_area (meters squared)":"43 m x 5 m","target_market (pejalan kaki, pekerja kantoran, warga)":"Pengunjung bazaar","revenue_per_month":"31.5 juta","transaction_per_buyer":"45 ribu","rent_trend":"0%","rent_price_annual":"3 Juta","rent_expiry_date":"none","tanggal_survey":"30-Agu-2026","kondisi_bangunan":"bagus","moda_terhubung":"MRT","jarak_ke_stasiun_meter":"254"}},{"type":"Feature","geometry":{"type":"Point","coordinates":[106.799914997074,-6.24477539418409,0]},"properties":{"id":"80","latitude":"-6.24477539418409","longitude":"106.799914997074","name":"Hoki Koki","description (produk)":"Makanan berat (street steak)","tenant_type (umkm/franchise-tetap/seasonal)":"UMKM seasonal","period (tahun/bulan/minggu)":"Beberapa minggu","transaction_per_day (ribu/juta/milliar)":"1-2jt / hari","tenant_area (meters squared)":"44 m x 5 m","target_market (pejalan kaki, pekerja kantoran, warga)":"Pengunjung bazaar","revenue_per_month":"28.5 juta","transaction_per_buyer":"50 ribu","rent_trend":"0%","rent_price_annual":"12.55 Juta","rent_expiry_date":"none","tanggal_survey":"30-Agu-2026","kondisi_bangunan":"bagus","moda_terhubung":"MRT","jarak_ke_stasiun_meter":"262"}},{"type":"Feature","geometry":{"type":"Point","coordinates":[106.799915712286,-6.24489423225879,0]},"properties":{"id":"81","latitude":"-6.24489423225879","longitude":"106.799915712286","name":"Yakult Fruity Corner","description (produk)":"Minuman (olahan yakult buah)","tenant_type (umkm/franchise-tetap/seasonal)":"UMKM seasonal","period (tahun/bulan/minggu)":"Beberapa minggu","transaction_per_day (ribu/juta/milliar)":"750rb-1.2jt / hari","tenant_area (meters squared)":"45 m x 5 m","target_market (pejalan kaki, pekerja kantoran, warga)":"Pengunjung bazaar","revenue_per_month":"45 juta","transaction_per_buyer":"60 ribu","rent_trend":"0%","rent_price_annual":"17 Juta","rent_expiry_date":"none","tanggal_survey":"30-Agu-2026","kondisi_bangunan":"bagus","moda_terhubung":"MRT","jarak_ke_stasiun_meter":"254"}},{"type":"Feature","geometry":{"type":"Point","coordinates":[106.799915712286,-6.24495932592643,0]},"properties":{"id":"82","latitude":"-6.24495932592643","longitude":"106.799915712286","name":"Chicme Roll","description (produk)":"Makanan ringan (crispy chicken roll)","tenant_type (umkm/franchise-tetap/seasonal)":"UMKM seasonal","period (tahun/bulan/minggu)":"Beberapa minggu","transaction_per_day (ribu/juta/milliar)":"900rb-1.3jt / hari","tenant_area (meters squared)":"46 m x 5 m","target_market (pejalan kaki, pekerja kantoran, warga)":"Pengunjung bazaar","revenue_per_month":"29.25 juta","transaction_per_buyer":"40 ribu","rent_trend":"0%","rent_price_annual":"12.275 Juta","rent_expiry_date":"none","tanggal_survey":"30-Agu-2026","kondisi_bangunan":"bagus","moda_terhubung":"MRT","jarak_ke_stasiun_meter":"262"}},{"type":"Feature","geometry":{"type":"Point","coordinates":[106.799918100383,-6.24501890576033,0]},"properties":{"id":"83","latitude":"-6.24501890576033","longitude":"106.799918100383","name":"Nagaj Potato","description (produk)":"Makanan ringan (kentang panjang)","tenant_type (umkm/franchise-tetap/seasonal)":"UMKM seasonal","period (tahun/bulan/minggu)":"4 bulan","transaction_per_day (ribu/juta/milliar)":"4 juta / hari","tenant_area (meters squared)":"47 m x 5 m","target_market (pejalan kaki, pekerja kantoran, warga)":"Masyarakat umum","revenue_per_month":"33 juta","transaction_per_buyer":"45 ribu","rent_trend":"0%","rent_price_annual":"5 Juta","rent_expiry_date":"none","tanggal_survey":"23-Agu-2026","kondisi_bangunan":"bagus","moda_terhubung":"MRT","jarak_ke_stasiun_meter":"263"}},{"type":"Feature","geometry":{"type":"Point","coordinates":[106.799917429831,-6.24506023328774,0]},"properties":{"id":"84","latitude":"-6.24506023328774","longitude":"106.799917429831","name":"Sweet & Co","description (produk)":"Minuman dingin","tenant_type (umkm/franchise-tetap/seasonal)":"UMKM seasonal","period (tahun/bulan/minggu)":"Beberapa minggu","transaction_per_day (ribu/juta/milliar)":"600rb-1.2jt / hari","tenant_area (meters squared)":"48 m x 5 m","target_market (pejalan kaki, pekerja kantoran, warga)":"Pengunjung Blok M Square","revenue_per_month":"120 juta","transaction_per_buyer":"30 ribu","rent_trend":"0%","rent_price_annual":"39.5 Juta","rent_expiry_date":"none","tanggal_survey":"29-Agu-2026","kondisi_bangunan":"bagus","moda_terhubung":"MRT","jarak_ke_stasiun_meter":"255"}},{"type":"Feature","geometry":{"type":"Point","coordinates":[106.799948752071,-6.24503736933572,0]},"properties":{"id":"85","latitude":"-6.24503736933572","longitude":"106.799948752071","name":"Es Gentong","description (produk)":"Makanan ringan (kerak telor, tahu gejrot)","tenant_type (umkm/franchise-tetap/seasonal)":"UMKM seasonal","period (tahun/bulan/minggu)":"2 minggu","transaction_per_day (ribu/juta/milliar)":"800rb-1.2jt / hari","tenant_area (meters squared)":"49 m x 5 m","target_market (pejalan kaki, pekerja kantoran, warga)":"Warga, pejalan kaki","revenue_per_month":"27 juta","transaction_per_buyer":"50 ribu","rent_trend":"0%","rent_price_annual":"12.1 Juta","rent_expiry_date":"none","tanggal_survey":"23-Agu-2026","kondisi_bangunan":"bagus","moda_terhubung":"MRT","jarak_ke_stasiun_meter":"187"}},{"type":"Feature","geometry":{"type":"Point","coordinates":[106.799759415101,-6.24389730733652,0]},"properties":{"id":"86","latitude":"-6.24389730733652","longitude":"106.799759415101","name":"Tohang's Barber Blok M","description (produk)":"Jasa Cukur","tenant_type (umkm/franchise-tetap/seasonal)":"umkm-tetap","period (tahun/bulan/minggu)":"","transaction_per_day (ribu/juta/milliar)":"","tenant_area (meters squared)":"50 m x 5 m","target_market (pejalan kaki, pekerja kantoran, warga)":"Warga, pejalan kaki","revenue_per_month":"30 juta","transaction_per_buyer":"45 ribu","rent_trend":"0%","rent_price_annual":"13 Juta","rent_expiry_date":"none","tanggal_survey":"","kondisi_bangunan":"bagus","moda_terhubung":"MRT","jarak_ke_stasiun_meter":"300"}},{"type":"Feature","geometry":{"type":"Point","coordinates":[106.799912241711,-6.24361804309951,0]},"properties":{"id":"87","latitude":"-6.24361804309951","longitude":"106.799912241711","name":"Chicme Roll","description (produk)":"Makanan musiman (long crisp chicken isian krim)","tenant_type (umkm/franchise-tetap/seasonal)":"UMKM musiman","period (tahun/bulan/minggu)":"Musiman (Event)","transaction_per_day (ribu/juta/milliar)":"Rp 3.000.000 / hari","tenant_area (meters squared)":"51 m x 5 m","target_market (pejalan kaki, pekerja kantoran, warga)":"Masyarakat umum, pengunjung bazaar","revenue_per_month":"90 juta","transaction_per_buyer":"60 ribu","rent_trend":"0%","rent_price_annual":"38 Juta","rent_expiry_date":"none","tanggal_survey":"23-Agu-2026","kondisi_bangunan":"bagus","moda_terhubung":"MRT","jarak_ke_stasiun_meter":"168"}},{"type":"Feature","geometry":{"type":"Point","coordinates":[106.799912241711,-6.24502858735624,0]},"properties":{"id":"88","latitude":"-6.24502858735624","longitude":"106.799912241711","name":"Sajian pencuci mulut berbahan dasar stroberi","description (produk)":"UMKM musiman","tenant_type (umkm/franchise-tetap/seasonal)":"Musiman (Event)","period (tahun/bulan/minggu)":"Rp 3.000.000 / hari","transaction_per_day (ribu/juta/milliar)":"Rp 4.000.000 / hari","tenant_area (meters squared)":"52 m x 5 m","target_market (pejalan kaki, pekerja kantoran, warga)":"Warga, pejalan kaki","revenue_per_month":"120 juta","transaction_per_buyer":"45 ribu","rent_trend":"0%","rent_price_annual":"39.5 Juta","rent_expiry_date":"none","tanggal_survey":"24-Agu-2026","kondisi_bangunan":"bagus","moda_terhubung":"MRT","jarak_ke_stasiun_meter":"190"}},{"type":"Feature","geometry":{"type":"Point","coordinates":[106.799912241711,-6.24453887679415,0]},"properties":{"id":"89","latitude":"-6.24453887679415","longitude":"106.799912241711","name":"Aneka minuman (kopi/non-kopi)","description (produk)":"UMKM tetap","tenant_type (umkm/franchise-tetap/seasonal)":"7 tahun (di lokasi 2 tahun)","period (tahun/bulan/minggu)":"Rp 2.000.000 / hari","transaction_per_day (ribu/juta/milliar)":"Rp 4.000.000 / hari","tenant_area (meters squared)":"53 m x 5 m","target_market (pejalan kaki, pekerja kantoran, warga)":"Warga, pejalan kaki","revenue_per_month":"120 juta","transaction_per_buyer":"55 ribu","rent_trend":"0%","rent_price_annual":"39.5 Juta","rent_expiry_date":"none","tanggal_survey":"25-Agu-2026","kondisi_bangunan":"bagus","moda_terhubung":"MRT","jarak_ke_stasiun_meter":"145"}},{"type":"Feature","geometry":{"type":"Point","coordinates":[106.799998633383,-6.24457820463862,0]},"properties":{"id":"90","latitude":"-6.24457820463862","longitude":"106.799998633383","name":"Kue kering viral bergaya Dubai","description (produk)":"UMKM musiman","tenant_type (umkm/franchise-tetap/seasonal)":"Musiman (Event)","period (tahun/bulan/minggu)":"Rp 3.000.000 / hari","transaction_per_day (ribu/juta/milliar)":"Rp 4.000.000 / hari","tenant_area (meters squared)":"54 m x 5 m","target_market (pejalan kaki, pekerja kantoran, warga)":"Warga, pejalan kaki","revenue_per_month":"120 juta","transaction_per_buyer":"40 ribu","rent_trend":"0%","rent_price_annual":"39.5 Juta","rent_expiry_date":"none","tanggal_survey":"26-Agu-2026","kondisi_bangunan":"bagus","moda_terhubung":"MRT","jarak_ke_stasiun_meter":"126"}},{"type":"Feature","geometry":{"type":"Point","coordinates":[106.799998633383,-6.24398357368139,0]},"properties":{"id":"91","latitude":"-6.24398357368139","longitude":"106.799998633383","name":"Takoyaki, Mac n Cheese Takoyaki, Giant Takoyaki","description (produk)":"UMKM musiman","tenant_type (umkm/franchise-tetap/seasonal)":"Musiman (Event Kyoto Seoul)","period (tahun/bulan/minggu)":"Rp 3.000.000 / hari","transaction_per_day (ribu/juta/milliar)":"Rp 4.000.000 / hari","tenant_area (meters squared)":"55 m x 5 m","target_market (pejalan kaki, pekerja kantoran, warga)":"Warga, pejalan kaki","revenue_per_month":"120 juta","transaction_per_buyer":"35 ribu","rent_trend":"0%","rent_price_annual":"39.5 Juta","rent_expiry_date":"none","tanggal_survey":"27-Agu-2026","kondisi_bangunan":"bagus","moda_terhubung":"MRT","jarak_ke_stasiun_meter":"127"}},{"type":"Feature","geometry":{"type":"Point","coordinates":[106.799998633383,-6.24398942411834,0]},"properties":{"id":"92","latitude":"-6.24398942411834","longitude":"106.799998633383","name":"Dimsum Difar","description (produk)":"Makanan ringan (dimsum)","tenant_type (umkm/franchise-tetap/seasonal)":"umkm-tetap","period (tahun/bulan/minggu)":"1 tahun","transaction_per_day (ribu/juta/milliar)":"Rp 4.000.000 / hari","tenant_area (meters squared)":"56 m x 5 m","target_market (pejalan kaki, pekerja kantoran, warga)":"pejalan kaki, warga","revenue_per_month":"120 juta","transaction_per_buyer":"45 ribu","rent_trend":"0%","rent_price_annual":"39.5 Juta","rent_expiry_date":"none","tanggal_survey":"28-Agu-2026","kondisi_bangunan":"bagus","moda_terhubung":"MRT","jarak_ke_stasiun_meter":"132"}},{"type":"Feature","geometry":{"type":"Point","coordinates":[106.799918532735,-6.24496246816272,0]},"properties":{"id":"93","latitude":"-6.24496246816272","longitude":"106.799918532735","name":"Nasgor Medan Halal","description (produk)":"Makanan berat (nasi goreng)","tenant_type (umkm/franchise-tetap/seasonal)":"UMKM seasonal","period (tahun/bulan/minggu)":"Beberapa minggu","transaction_per_day (ribu/juta/milliar)":"750rb-1.3jt / hari","tenant_area (meters squared)":"57 m x 5 m","target_market (pejalan kaki, pekerja kantoran, warga)":"Pengunjung bazaar","revenue_per_month":"30.75 juta","transaction_per_buyer":"50 ribu","rent_trend":"0%","rent_price_annual":"12.725 Juta","rent_expiry_date":"none","tanggal_survey":"30-Agu-2026","kondisi_bangunan":"bagus","moda_terhubung":"MRT","jarak_ke_stasiun_meter":"185"}},{"type":"Feature","geometry":{"type":"Point","coordinates":[106.799956083662,-6.2448991437101,0]},"properties":{"id":"94","latitude":"-6.2448991437101","longitude":"106.799956083662","name":"Cimoz","description (produk)":"Makanan ringan (cimol kekinian & mozzarella)","tenant_type (umkm/franchise-tetap/seasonal)":"UMKM seasonal","period (tahun/bulan/minggu)":"Beberapa minggu","transaction_per_day (ribu/juta/milliar)":"800rb-1.3jt / hari","tenant_area (meters squared)":"58 m x 5 m","target_market (pejalan kaki, pekerja kantoran, warga)":"Anak-anak muda, pelajar","revenue_per_month":"31.5 juta","transaction_per_buyer":"45 ribu","rent_trend":"0%","rent_price_annual":"12.95 Juta","rent_expiry_date":"none","tanggal_survey":"30-Agu-2026","kondisi_bangunan":"bagus","moda_terhubung":"MRT","jarak_ke_stasiun_meter":"280"}},{"type":"Feature","geometry":{"type":"Point","coordinates":[106.799949378139,-6.24494513725898,0]},"properties":{"id":"95","latitude":"-6.24494513725898","longitude":"106.799949378139","name":"Pani Puri","description (produk)":"Makanan ringan (Authentic Indian Street Food)","tenant_type (umkm/franchise-tetap/seasonal)":"UMKM seasonal","period (tahun/bulan/minggu)":"Beberapa minggu","transaction_per_day (ribu/juta/milliar)":"900rb-1.5jt / hari","tenant_area (meters squared)":"59 m x 5 m","target_market (pejalan kaki, pekerja kantoran, warga)":"Anak muda, foodies","revenue_per_month":"36 juta","transaction_per_buyer":"40 ribu","rent_trend":"0%","rent_price_annual":"14.8 Juta","rent_expiry_date":"none","tanggal_survey":"30-Agu-2026","kondisi_bangunan":"bagus","moda_terhubung":"MRT","jarak_ke_stasiun_meter":"280"}},{"type":"Feature","geometry":{"type":"Point","coordinates":[106.799954072005,-6.24477582765333,0]},"properties":{"id":"96","latitude":"-6.24477582765333","longitude":"106.799954072005","name":"Mochi Lab","description (produk)":"Makanan ringan (Dubai Chewie Mochi & Gelato)","tenant_type (umkm/franchise-tetap/seasonal)":"UMKM seasonal","period (tahun/bulan/minggu)":"Beberapa minggu","transaction_per_day (ribu/juta/milliar)":"1.2jt-2.2jt / hari","tenant_area (meters squared)":"60 m x 5 m","target_market (pejalan kaki, pekerja kantoran, warga)":"Anak muda","revenue_per_month":"51 juta","transaction_per_buyer":"50 ribu","rent_trend":"0%","rent_price_annual":"19.55 Juta","rent_expiry_date":"none","tanggal_survey":"30-Agu-2026","kondisi_bangunan":"bagus","moda_terhubung":"MRT","jarak_ke_stasiun_meter":"280"}},{"type":"Feature","geometry":{"type":"Point","coordinates":[106.7999527309,-6.24473050065992,0]},"properties":{"id":"97","latitude":"-6.24473050065992","longitude":"106.7999527309","name":"Gultik & Nasi Pindang Semarang","description (produk)":"Makanan berat (Gultik, Nasi Pindang Paru)","tenant_type (umkm/franchise-tetap/seasonal)":"UMKM seasonal","period (tahun/bulan/minggu)":"Beberapa minggu","transaction_per_day (ribu/juta/milliar)":"950rb-1.6jt / hari","tenant_area (meters squared)":"61 m x 5 m","target_market (pejalan kaki, pekerja kantoran, warga)":"Pengunjung bazaar","revenue_per_month":"38.25 juta","transaction_per_buyer":"55 ribu","rent_trend":"0%","rent_price_annual":"4 Juta","rent_expiry_date":"none","tanggal_survey":"30-Agu-2026","kondisi_bangunan":"bagus","moda_terhubung":"MRT","jarak_ke_stasiun_meter":"280"}},{"type":"Feature","geometry":{"type":"Point","coordinates":[106.799921214944,-6.24416324636495,0]},"properties":{"id":"98","latitude":"-6.24416324636495","longitude":"106.799921214944","name":"Coconut Ice Cream","description (produk)":"Minuman/Dessert (Es krim kelapa & minuman segar)","tenant_type (umkm/franchise-tetap/seasonal)":"UMKM seasonal","period (tahun/bulan/minggu)":"Beberapa minggu","transaction_per_day (ribu/juta/milliar)":"850rb-1.3jt / hari","tenant_area (meters squared)":"62 m x 5 m","target_market (pejalan kaki, pekerja kantoran, warga)":"Pengunjung bazaar","revenue_per_month":"32.25 juta","transaction_per_buyer":"35 ribu","rent_trend":"0%","rent_price_annual":"3.5 Juta","rent_expiry_date":"none","tanggal_survey":"30-Agu-2026","kondisi_bangunan":"bagus","moda_terhubung":"MRT","jarak_ke_stasiun_meter":"200"}},{"type":"Feature","geometry":{"type":"Point","coordinates":[106.799954072005,-6.24407192569952,0]},"properties":{"id":"99","latitude":"-6.24407192569952","longitude":"106.799954072005","name":"Nasi Goreng Miewa","description (produk)":"Makanan berat (Nasi Goreng Khas Nusantara)","tenant_type (umkm/franchise-tetap/seasonal)":"UMKM seasonal","period (tahun/bulan/minggu)":"Beberapa minggu","transaction_per_day (ribu/juta/milliar)":"850rb-1.4jt / hari","tenant_area (meters squared)":"63 m x 5 m","target_market (pejalan kaki, pekerja kantoran, warga)":"Pengunjung bazaar, warga","revenue_per_month":"33.75 juta","transaction_per_buyer":"40 ribu","rent_trend":"0%","rent_price_annual":"13.875 Juta","rent_expiry_date":"none","tanggal_survey":"30-Agu-2026","kondisi_bangunan":"bagus","moda_terhubung":"MRT","jarak_ke_stasiun_meter":"204"}},{"type":"Feature","geometry":{"type":"Point","coordinates":[106.799920502315,-6.24426869459095,0]},"properties":{"id":"100","latitude":"-6.24426869459095","longitude":"106.799920502315","name":"Seafood Bakar Jimbaran","description (produk)":"Sate olahan seafood bakar (cumi, baby octopus, oyster)","tenant_type (umkm/franchise-tetap/seasonal)":"UMKM musiman","period (tahun/bulan/minggu)":"Musiman (Event)","transaction_per_day (ribu/juta/milliar)":"Rp 3.500.000 / hari","tenant_area (meters squared)":"64 m x 5 m","target_market (pejalan kaki, pekerja kantoran, warga)":"Masyarakat umum, pengunjung acara","revenue_per_month":"105 juta","transaction_per_buyer":"60 ribu","rent_trend":"0%","rent_price_annual":"4 Juta","rent_expiry_date":"none","tanggal_survey":"31-Agu-2026","kondisi_bangunan":"bagus","moda_terhubung":"MRT","jarak_ke_stasiun_meter":"280"}}]}