{"type":"FeatureCollection","features":[{"type":"Feature","geometry":{"type":"Point","coordinates":[106.822615,-6.202065,0]},"properties":{"id":"1","latitude":"-6.202065","longitude":"106.822615","name":"mochie moe moe","description (produk)":"bakery, dessert","tenant_type (umkm/franchise-tetap/seasonal)":"umkm-seasonal","period (tahun/bulan/minggu)":"1 tahun","transaction_per_day (ribu/juta/milliar)":"5 juta","tenant_area (meters squared)":"3.5 m x 3.5 m","target_market (pejalan kaki, pekerja kantoran, warga)":"pejalan kaki, pekerja kantoran","revenue_per_month":"150juta","transaction_per_buyer":"20 ribu","rent_trend":"4%","rent_price_annual":"13 juta/bulan","rent_expiry_date":"23-Aug","tanggal_survey":"23-Agu-2026","kondisi_bangunan":"bagus","moda_terhubung":"stasiun","jarak_ke_stasiun_meter":"72","rent_price_annual_idr":"156000000","transaction_per_day_idr":"5000000","revenue_per_month_idr":"150000000","transaction_per_buyer_idr":"20000","rent_trend_pct":"4","period_months":"12"}},{"type":"Feature","geometry":{"type":"Point","coordinates":[106.822611,-6.202022,0]},"properties":{"id":"2","latitude":"-6.202022","longitude":"106.822611","name":"risol pedas","description (produk)":"gorengan","tenant_type (umkm/franchise-tetap/seasonal)":"umkm-seasonal","period (tahun/bulan/minggu)":"1 tahun","transaction_per_day (ribu/juta/milliar)":"2 juta","tenant_area (meters squared)":"3.5 m x 3.5 m","target_market (pejalan kaki, pekerja kantoran, warga)":"pejalan kaki, pekerja kantoran","revenue_per_month":"50 juta","transaction_per_buyer":"20 ribu","rent_trend":"4%","rent_price_annual":"13  juta/bulan","rent_expiry_date":"none","tanggal_survey":"23-Agu-2026","kondisi_bangunan":"bagus","moda_terhubung":"stasiun","jarak_ke_stasiun_meter":"244","rent_price_annual_idr":"156000000","transaction_per_day_idr":"2000000","revenue_per_month_idr":"50000000","transaction_per_buyer_idr":"20000","rent_trend_pct":"4","period_months":"12"}},{"type":"Feature","geometry":{"type":"Point","coordinates":[106.822764,-6.202072,0]},"properties":{"id":"3","latitude":"-6.202072","longitude":"106.822764","name":"dimsum makmur abadi","description (produk)":"gorengan","tenant_type (umkm/franchise-tetap/seasonal)":"umkm-seasonal","period (tahun/bulan/minggu)":"1 tahun","transaction_per_day (ribu/juta/milliar)":"1.5 juta","tenant_area (meters squared)":"3.5 m x 3.5 m","target_market (pejalan kaki, pekerja kantoran, warga)":"pejalan kaki, pekerja kantoran","revenue_per_month":"40 juta","transaction_per_buyer":"25 ribu","rent_trend":"4%","rent_price_annual":"13 juta/bulan","rent_expiry_date":"none","tanggal_survey":"23-Agu-2026","kondisi_bangunan":"bagus","moda_terhubung":"stasiun","jarak_ke_stasiun_meter":"214","rent_price_annual_idr":"156000000","transaction_per_day_idr":"1500000","revenue_per_month_idr":"40000000","transaction_per_buyer_idr":"25000","rent_trend_pct":"4","period_months":"12"}},{"type":"Feature","geometry":{"type":"Point","coordinates":[106.82274,-6.20207,0]},"properties":{"id":"4","latitude":"-6.20207","longitude":"106.82274","name":"tuku","description (produk)":"minuman (kopi), dessert","tenant_type (umkm/franchise-tetap/seasonal)":"franchise-tetap","period (tahun/bulan/minggu)":"2 tahun","transaction_per_day (ribu/juta/milliar)":"40 juta","tenant_area (meters squared)":"5 m x 5 m","target_market (pejalan kaki, pekerja kantoran, warga)":"pekerja kantoran, pejalan kaki, warga","revenue_per_month":"120 juta","transaction_per_buyer":"50 ribu","rent_trend":"0%","rent_price_annual":"","rent_expiry_date":"none","tanggal_survey":"23-Agu-2026","kondisi_bangunan":"bagus","moda_terhubung":"stasiun","jarak_ke_stasiun_meter":"160","rent_price_annual_idr":"91250000","transaction_per_day_idr":"40000000","revenue_per_month_idr":"120000000","transaction_per_buyer_idr":"50000","rent_trend_pct":"0","period_months":"24"}},{"type":"Feature","geometry":{"type":"Point","coordinates":[106.822641,-6.202047,0]},"properties":{"id":"5","latitude":"-6.202047","longitude":"106.822641","name":"difabis","description (produk)":"minuman (kopi, teh), dessert","tenant_type (umkm/franchise-tetap/seasonal)":"franchise-tetap","period (tahun/bulan/minggu)":"4 tahun","transaction_per_day (ribu/juta/milliar)":"3 juta","tenant_area (meters squared)":"5 m x 5 m","target_market (pejalan kaki, pekerja kantoran, warga)":"pekerja kantoran, pejalan kaki, warga","revenue_per_month":"70 juta","transaction_per_buyer":"40 ribu","rent_trend":"5%","rent_price_annual":"","rent_expiry_date":"none","tanggal_survey":"23-Agu-2026","kondisi_bangunan":"bagus","moda_terhubung":"stasiun","jarak_ke_stasiun_meter":"158","rent_price_annual_idr":"91250000","transaction_per_day_idr":"3000000","revenue_per_month_idr":"70000000","transaction_per_buyer_idr":"40000","rent_trend_pct":"5","period_months":"48"}},{"type":"Feature","geometry":{"type":"Point","coordinates":[106.822531,-6.201888,0]},"properties":{"id":"6","latitude":"-6.201888","longitude":"106.822531","name":"yahwa","description (produk)":"minuman (kopi, teh)","tenant_type (umkm/franchise-tetap/seasonal)":"umkm-tetap","period (tahun/bulan/minggu)":"2 tahun","transaction_per_day (ribu/juta/milliar)":"800 ribu","tenant_area (meters squared)":"4 m x 4 m","target_market (pejalan kaki, pekerja kantoran, warga)":"pejalan kaki, pekerja kantoran","revenue_per_month":"24 juta","transaction_per_buyer":"50 ribu","rent_trend":"0%","rent_price_annual":"160 ribu/hari","rent_expiry_date":"none","tanggal_survey":"23-Agu-2026","kondisi_bangunan":"bagus","moda_terhubung":"stasiun","jarak_ke_stasiun_meter":"265","rent_price_annual_idr":"58400000","transaction_per_day_idr":"800000","revenue_per_month_idr":"24000000","transaction_per_buyer_idr":"50000","rent_trend_pct":"0","period_months":"24"}},{"type":"Feature","geometry":{"type":"Point","coordinates":[106.822524,-6.201911,0]},"properties":{"id":"7","latitude":"-6.201911","longitude":"106.822524","name":"warung uni desi","description (produk)":"makanan berat (nasi)","tenant_type (umkm/franchise-tetap/seasonal)":"umkm-tetap","period (tahun/bulan/minggu)":"2 tahun","transaction_per_day (ribu/juta/milliar)":"900 ribu","tenant_area (meters squared)":"4 m x 3 m","target_market (pejalan kaki, pekerja kantoran, warga)":"pekerja kantoran, pejalan kaki","revenue_per_month":"12 juta","transaction_per_buyer":"25 ribu","rent_trend":"0%","rent_price_annual":"180 ribu/hari","rent_expiry_date":"none","tanggal_survey":"23-Agu-2026","kondisi_bangunan":"bagus","moda_terhubung":"stasiun","jarak_ke_stasiun_meter":"71","rent_price_annual_idr":"65700000","transaction_per_day_idr":"900000","revenue_per_month_idr":"12000000","transaction_per_buyer_idr":"25000","rent_trend_pct":"0","period_months":"24"}},{"type":"Feature","geometry":{"type":"Point","coordinates":[106.822455,-6.201936,0]},"properties":{"id":"8","latitude":"-6.201936","longitude":"106.822455","name":"mie ayam nada cinta","description (produk)":"makanan berat (mie)","tenant_type (umkm/franchise-tetap/seasonal)":"umkm-tetap","period (tahun/bulan/minggu)":"2 tahun","transaction_per_day (ribu/juta/milliar)":"500 ribu","tenant_area (meters squared)":"4 m x 3 m","target_market (pejalan kaki, pekerja kantoran, warga)":"pekerja kantoran, pejalan kaki","revenue_per_month":"12 juta","transaction_per_buyer":"30 ribu","rent_trend":"0%","rent_price_annual":"100 ribu/hari","rent_expiry_date":"none","tanggal_survey":"23-Agu-2026","kondisi_bangunan":"bagus","moda_terhubung":"stasiun","jarak_ke_stasiun_meter":"225","rent_price_annual_idr":"36500000","transaction_per_day_idr":"500000","revenue_per_month_idr":"12000000","transaction_per_buyer_idr":"30000","rent_trend_pct":"0","period_months":"24"}},{"type":"Feature","geometry":{"type":"Point","coordinates":[106.822697,-6.201762,0]},"properties":{"id":"9","latitude":"-6.201762","longitude":"106.822697","name":"tebucin","description (produk)":"minuman (teh)","tenant_type (umkm/franchise-tetap/seasonal)":"umkm-tetap","period (tahun/bulan/minggu)":"1.5 tahun","transaction_per_day (ribu/juta/milliar)":"600 ribu","tenant_area (meters squared)":"4 m x 3 m","target_market (pejalan kaki, pekerja kantoran, warga)":"pekerja kantoran, pejalan kaki","revenue_per_month":"14 juta","transaction_per_buyer":"30 ribu","rent_trend":"0%","rent_price_annual":"120 ribu/hari","rent_expiry_date":"none","tanggal_survey":"23-Agu-2026","kondisi_bangunan":"bagus","moda_terhubung":"stasiun","jarak_ke_stasiun_meter":"100","rent_price_annual_idr":"43800000","transaction_per_day_idr":"600000","revenue_per_month_idr":"14000000","transaction_per_buyer_idr":"30000","rent_trend_pct":"0","period_months":"18"}},{"type":"Feature","geometry":{"type":"Point","coordinates":[106.822676,-6.20173,0]},"properties":{"id":"10","latitude":"-6.20173","longitude":"106.822676","name":"pawon tari","description (produk)":"makanan berat","tenant_type (umkm/franchise-tetap/seasonal)":"umkm-tetap","period (tahun/bulan/minggu)":"3 tahun","transaction_per_day (ribu/juta/milliar)":"900ribu","tenant_area (meters squared)":"4 m x 3 m","target_market (pejalan kaki, pekerja kantoran, warga)":"pekerja kantoran, pejalan kaki","revenue_per_month":"15 juta","transaction_per_buyer":"35 ribu","rent_trend":"0%","rent_price_annual":"180 ribu/hari","rent_expiry_date":"none","tanggal_survey":"23-Agu-2026","kondisi_bangunan":"bagus","moda_terhubung":"stasiun","jarak_ke_stasiun_meter":"73","rent_price_annual_idr":"65700000","transaction_per_day_idr":"900000","revenue_per_month_idr":"15000000","transaction_per_buyer_idr":"35000","rent_trend_pct":"0","period_months":"36"}},{"type":"Feature","geometry":{"type":"Point","coordinates":[106.822678,-6.20173,0]},"properties":{"id":"11","latitude":"-6.20173","longitude":"106.822678","name":"dapur rasya","description (produk)":"makanan berat, makanan ringan (gorengan)","tenant_type (umkm/franchise-tetap/seasonal)":"umkm-seasonal","period (tahun/bulan/minggu)":"1 bulan","transaction_per_day (ribu/juta/milliar)":"1.5 juta","tenant_area (meters squared)":"3 m x 3 m","target_market (pejalan kaki, pekerja kantoran, warga)":"pekerja kantoran, pejalan kaki","revenue_per_month":"35 juta","transaction_per_buyer":"50ribu","rent_trend":"5%","rent_price_annual":"2 juta/5 hari","rent_expiry_date":"none","tanggal_survey":"23-Agu-2026","kondisi_bangunan":"bagus","moda_terhubung":"stasiun","jarak_ke_stasiun_meter":"182","rent_price_annual_idr":"146000000","transaction_per_day_idr":"1500000","revenue_per_month_idr":"35000000","transaction_per_buyer_idr":"50000","rent_trend_pct":"5","period_months":"1"}},{"type":"Feature","geometry":{"type":"Point","coordinates":[106.82266,-6.201766,0]},"properties":{"id":"12","latitude":"-6.201766","longitude":"106.82266","name":"sedap rasa","description (produk)":"makanan berat","tenant_type (umkm/franchise-tetap/seasonal)":"umkm-tetap","period (tahun/bulan/minggu)":"2.5 tahun","transaction_per_day (ribu/juta/milliar)":"1..5 juta","tenant_area (meters squared)":"4 m x 3 m","target_market (pejalan kaki, pekerja kantoran, warga)":"pekerja kantoran, pejalan kaki","revenue_per_month":"17 juta","transaction_per_buyer":"25ribu","rent_trend":"0%","rent_price_annual":"300 ribu/hari","rent_expiry_date":"none","tanggal_survey":"23-Agu-2026","kondisi_bangunan":"bagus","moda_terhubung":"stasiun","jarak_ke_stasiun_meter":"294","rent_price_annual_idr":"109500000","transaction_per_day_idr":"1950000","revenue_per_month_idr":"17000000","transaction_per_buyer_idr":"25000","rent_trend_pct":"0","period_months":"30"}},{"type":"Feature","geometry":{"type":"Point","coordinates":[106.82268,-6.201697,0]},"properties":{"id":"13","latitude":"-6.201697","longitude":"106.82268","name":"dapur pontianak","description (produk)":"makanan berat","tenant_type (umkm/franchise-tetap/seasonal)":"umkm-tetap","period (tahun/bulan/minggu)":"2 tahun","transaction_per_day (ribu/juta/milliar)":"1.3 juta","tenant_area (meters squared)":"4 m x 3 m","target_market (pejalan kaki, pekerja kantoran, warga)":"pekerja kantoran, pejalan kaki","revenue_per_month":"18 juta","transaction_per_buyer":"30 ribu","rent_trend":"0%","rent_price_annual":"260 ribu/hari","rent_expiry_date":"none","tanggal_survey":"23-Agu-2026","kondisi_bangunan":"bagus","moda_terhubung":"stasiun","jarak_ke_stasiun_meter":"234","rent_price_annual_idr":"94900000","transaction_per_day_idr":"1300000","revenue_per_month_idr":"18000000","transaction_per_buyer_idr":"30000","rent_trend_pct":"0","period_months":"24"}},{"type":"Feature","geometry":{"type":"Point","coordinates":[106.822654,-6.201714,0]},"properties":{"id":"14","latitude":"-6.201714","longitude":"106.822654","name":"radisha nasi uduk betawi","description (produk)":"makanan berat (nasi)","tenant_type (umkm/franchise-tetap/seasonal)":"umkm-tetap","period (tahun/bulan/minggu)":"1 tahun","transaction_per_day (ribu/juta/milliar)":"1 juta","tenant_area (meters squared)":"4 m x 3 m","target_market (pejalan kaki, pekerja kantoran, warga)":"pekerja kantoran, pejalan kaki","revenue_per_month":"19 juta","transaction_per_buyer":"30 ribu","rent_trend":"0%","rent_price_annual":"200 ribu/hari","rent_expiry_date":"none","tanggal_survey":"23-Agu-2026","kondisi_bangunan":"bagus","moda_terhubung":"stasiun","jarak_ke_stasiun_meter":"241","rent_price_annual_idr":"73000000","transaction_per_day_idr":"1000000","revenue_per_month_idr":"19000000","transaction_per_buyer_idr":"30000","rent_trend_pct":"0","period_months":"12"}},{"type":"Feature","geometry":{"type":"Point","coordinates":[106.822662,-6.201716,0]},"properties":{"id":"15","latitude":"-6.201716","longitude":"106.822662","name":"obellys","description (produk)":"minuman ","tenant_type (umkm/franchise-tetap/seasonal)":"umkm-tetap","period (tahun/bulan/minggu)":"1 tahun","transaction_per_day (ribu/juta/milliar)":"800 ribu","tenant_area (meters squared)":"4 m x 3 m","target_market (pejalan kaki, pekerja kantoran, warga)":"pekerja kantoran, pejalan kaki","revenue_per_month":"20 juta","transaction_per_buyer":"35 ribu","rent_trend":"0%","rent_price_annual":"160 ribu/hari","rent_expiry_date":"none","tanggal_survey":"23-Agu-2026","kondisi_bangunan":"bagus","moda_terhubung":"stasiun","jarak_ke_stasiun_meter":"230","rent_price_annual_idr":"58400000","transaction_per_day_idr":"800000","revenue_per_month_idr":"20000000","transaction_per_buyer_idr":"35000","rent_trend_pct":"0","period_months":"12"}},{"type":"Feature","geometry":{"type":"Point","coordinates":[106.822645,-6.201733,0]},"properties":{"id":"16","latitude":"-6.201733","longitude":"106.822645","name":"jus gemoy","description (produk)":"minuman","tenant_type (umkm/franchise-tetap/seasonal)":"umkm-tetap","period (tahun/bulan/minggu)":"1 tahun","transaction_per_day (ribu/juta/milliar)":"700 ribu","tenant_area (meters squared)":"4 m x 3 m","target_market (pejalan kaki, pekerja kantoran, warga)":"pekerja kantoran, pejalan kaki","revenue_per_month":"21 juta","transaction_per_buyer":"30 ribu","rent_trend":"0%","rent_price_annual":"140 ribu/hari","rent_expiry_date":"none","tanggal_survey":"23-Agu-2026","kondisi_bangunan":"bagus","moda_terhubung":"stasiun","jarak_ke_stasiun_meter":"247","rent_price_annual_idr":"51100000","transaction_per_day_idr":"700000","revenue_per_month_idr":"21000000","transaction_per_buyer_idr":"30000","rent_trend_pct":"0","period_months":"12"}},{"type":"Feature","geometry":{"type":"Point","coordinates":[106.8226292,-6.2017784,0]},"properties":{"id":"17","latitude":"-6.2017784","longitude":"106.8226292","name":"soto bang rifky","description (produk)":"makanan berat (soto)","tenant_type (umkm/franchise-tetap/seasonal)":"umkm-tetap","period (tahun/bulan/minggu)":"2 tahun","transaction_per_day (ribu/juta/milliar)":"1.2 juta","tenant_area (meters squared)":"4 m x 3 m","target_market (pejalan kaki, pekerja kantoran, warga)":"pekerja kantoran, pejalan kaki","revenue_per_month":"22 juta","transaction_per_buyer":"35 ribu","rent_trend":"0%","rent_price_annual":"240 ribu/hari","rent_expiry_date":"none","tanggal_survey":"23-Agu-2026","kondisi_bangunan":"bagus","moda_terhubung":"stasiun","jarak_ke_stasiun_meter":"178","rent_price_annual_idr":"87600000","transaction_per_day_idr":"1200000","revenue_per_month_idr":"22000000","transaction_per_buyer_idr":"35000","rent_trend_pct":"0","period_months":"24"}},{"type":"Feature","geometry":{"type":"Point","coordinates":[106.822745,-6.201736,0]},"properties":{"id":"18","latitude":"-6.201736","longitude":"106.822745","name":"aa fun chicken","description (produk)":"makanan berat, gorengan","tenant_type (umkm/franchise-tetap/seasonal)":"umkm-seasonal","period (tahun/bulan/minggu)":"9 bulan","transaction_per_day (ribu/juta/milliar)":"1.5 juta","tenant_area (meters squared)":"4 m x 3 m","target_market (pejalan kaki, pekerja kantoran, warga)":"pekerja kantoran, pejalan kaki","revenue_per_month":"40 juta","transaction_per_buyer":"40 ribu","rent_trend":"4%","rent_price_annual":"13 juta/bulan","rent_expiry_date":"none","tanggal_survey":"23-Agu-2026","kondisi_bangunan":"bagus","moda_terhubung":"stasiun","jarak_ke_stasiun_meter":"82","rent_price_annual_idr":"156000000","transaction_per_day_idr":"1500000","revenue_per_month_idr":"40000000","transaction_per_buyer_idr":"40000","rent_trend_pct":"4","period_months":"9"}},{"type":"Feature","geometry":{"type":"Point","coordinates":[106.8226359,-6.2017031,0]},"properties":{"id":"19","latitude":"-6.2017031","longitude":"106.8226359","name":"dimsum abadi jaya","description (produk)":"makanan ringan (gorengan)","tenant_type (umkm/franchise-tetap/seasonal)":"umkm-seasonal","period (tahun/bulan/minggu)":"8 bulan","transaction_per_day (ribu/juta/milliar)":"1.8 juta","tenant_area (meters squared)":"4 m x 3 m","target_market (pejalan kaki, pekerja kantoran, warga)":"pekerja kantoran, pejalan kaki","revenue_per_month":"45 juta","transaction_per_buyer":"45 ribu","rent_trend":"0%","rent_price_annual":"2 juta/5 hari","rent_expiry_date":"none","tanggal_survey":"23-Agu-2026","kondisi_bangunan":"bagus","moda_terhubung":"stasiun","jarak_ke_stasiun_meter":"260","rent_price_annual_idr":"146000000","transaction_per_day_idr":"1800000","revenue_per_month_idr":"45000000","transaction_per_buyer_idr":"45000","rent_trend_pct":"0","period_months":"8"}},{"type":"Feature","geometry":{"type":"Point","coordinates":[106.822649,-6.202013,0]},"properties":{"id":"20","latitude":"-6.202013","longitude":"106.822649","name":"siomay bandung","description (produk)":"makanan ringan (gorengan)","tenant_type (umkm/franchise-tetap/seasonal)":"umkm-seasonal","period (tahun/bulan/minggu)":"6 bulan","transaction_per_day (ribu/juta/milliar)":"1.9 juta","tenant_area (meters squared)":"4 m x 3 m","target_market (pejalan kaki, pekerja kantoran, warga)":"pekerja kantoran, pejalan kaki","revenue_per_month":"41 juta","transaction_per_buyer":"35 ribu","rent_trend":"0%","rent_price_annual":"2 juta/5 hari","rent_expiry_date":"none","tanggal_survey":"23-Agu-2026","kondisi_bangunan":"bagus","moda_terhubung":"stasiun","jarak_ke_stasiun_meter":"163","rent_price_annual_idr":"146000000","transaction_per_day_idr":"1900000","revenue_per_month_idr":"41000000","transaction_per_buyer_idr":"35000","rent_trend_pct":"0","period_months":"6"}},{"type":"Feature","geometry":{"type":"Point","coordinates":[106.822845,-6.202313,0]},"properties":{"id":"21","latitude":"-6.202313","longitude":"106.822845","name":"ice cream durian asli duriannya","description (produk)":"dessert(makanan penutup)","tenant_type (umkm/franchise-tetap/seasonal)":"umkm-seasonal","period (tahun/bulan/minggu)":"7 bulan","transaction_per_day (ribu/juta/milliar)":"1.5 juta","tenant_area (meters squared)":"4 m x 3 m","target_market (pejalan kaki, pekerja kantoran, warga)":"pekerja kantoran, pejalan kaki","revenue_per_month":"45 juta","transaction_per_buyer":"40 ribu","rent_trend":"0%","rent_price_annual":"2 juta/5 hari","rent_expiry_date":"none","tanggal_survey":"23-Agu-2026","kondisi_bangunan":"bagus","moda_terhubung":"stasiun","jarak_ke_stasiun_meter":"175","rent_price_annual_idr":"146000000","transaction_per_day_idr":"1500000","revenue_per_month_idr":"45000000","transaction_per_buyer_idr":"40000","rent_trend_pct":"0","period_months":"7"}},{"type":"Feature","geometry":{"type":"Point","coordinates":[106.82281,-6.202277,0]},"properties":{"id":"22","latitude":"-6.202277","longitude":"106.82281","name":"cilemboost","description (produk)":"makanan ringan (gorengan)","tenant_type (umkm/franchise-tetap/seasonal)":"umkm-seasonal","period (tahun/bulan/minggu)":"7 bulan","transaction_per_day (ribu/juta/milliar)":"2 juta","tenant_area (meters squared)":"4 m x 3 m","target_market (pejalan kaki, pekerja kantoran, warga)":"pekerja kantoran, pejalan kaki","revenue_per_month":"61 juta","transaction_per_buyer":"40 ribu","rent_trend":"0%","rent_price_annual":"2 juta/5 hari","rent_expiry_date":"none","tanggal_survey":"23-Agu-2026","kondisi_bangunan":"bagus","moda_terhubung":"stasiun","jarak_ke_stasiun_meter":"143","rent_price_annual_idr":"146000000","transaction_per_day_idr":"2000000","revenue_per_month_idr":"61000000","transaction_per_buyer_idr":"40000","rent_trend_pct":"0","period_months":"7"}},{"type":"Feature","geometry":{"type":"Point","coordinates":[106.822766,-6.202334,0]},"properties":{"id":"23","latitude":"-6.202334","longitude":"106.822766","name":"ndl burgerlicious","description (produk)":"makanan berat","tenant_type (umkm/franchise-tetap/seasonal)":"umkm-seasonal","period (tahun/bulan/minggu)":"8 bulan","transaction_per_day (ribu/juta/milliar)":"4 juta","tenant_area (meters squared)":"3.5 m x 3 m","target_market (pejalan kaki, pekerja kantoran, warga)":"pekerja kantoran, pejalan kaki","revenue_per_month":"79 juta","transaction_per_buyer":"50 ribu","rent_trend":"5%","rent_price_annual":"2.5 juta/4 hari","rent_expiry_date":"none","tanggal_survey":"23-Agu-2026","kondisi_bangunan":"bagus","moda_terhubung":"stasiun","jarak_ke_stasiun_meter":"95","rent_price_annual_idr":"228125000","transaction_per_day_idr":"4000000","revenue_per_month_idr":"79000000","transaction_per_buyer_idr":"50000","rent_trend_pct":"5","period_months":"8"}},{"type":"Feature","geometry":{"type":"Point","coordinates":[106.822837,-6.202344,0]},"properties":{"id":"24","latitude":"-6.202344","longitude":"106.822837","name":"pisang goreng khas pontianak","description (produk)":"makanan ringan (gorengan)","tenant_type (umkm/franchise-tetap/seasonal)":"umkm-seasonal","period (tahun/bulan/minggu)":"7.5 bulan","transaction_per_day (ribu/juta/milliar)":"900 ribu","tenant_area (meters squared)":"3.5 m x 3 m","target_market (pejalan kaki, pekerja kantoran, warga)":"pekerja kantoran, pejalan kaki","revenue_per_month":"25 juta","transaction_per_buyer":"30 ribu","rent_trend":"0%","rent_price_annual":"500 ribu/hari","rent_expiry_date":"none","tanggal_survey":"23-Agu-2026","kondisi_bangunan":"bagus","moda_terhubung":"stasiun","jarak_ke_stasiun_meter":"282","rent_price_annual_idr":"182500000","transaction_per_day_idr":"900000","revenue_per_month_idr":"25000000","transaction_per_buyer_idr":"30000","rent_trend_pct":"0","period_months":"7.5"}},{"type":"Feature","geometry":{"type":"Point","coordinates":[106.822821,-6.20229,0]},"properties":{"id":"25","latitude":"-6.20229","longitude":"106.822821","name":"ryu dimsum","description (produk)":"makanan ringan (gorengan)","tenant_type (umkm/franchise-tetap/seasonal)":"umkm-seasonal","period (tahun/bulan/minggu)":"9 bulan","transaction_per_day (ribu/juta/milliar)":"2 juta","tenant_area (meters squared)":"3.5 m x 3 m","target_market (pejalan kaki, pekerja kantoran, warga)":"pekerja kantoran, pejalan kaki","revenue_per_month":"30 juta","transaction_per_buyer":"20 ribu","rent_trend":"0%","rent_price_annual":"500 ribu/hari","rent_expiry_date":"none","tanggal_survey":"23-Agu-2026","kondisi_bangunan":"bagus","moda_terhubung":"stasiun","jarak_ke_stasiun_meter":"246","rent_price_annual_idr":"182500000","transaction_per_day_idr":"2000000","revenue_per_month_idr":"30000000","transaction_per_buyer_idr":"20000","rent_trend_pct":"0","period_months":"9"}},{"type":"Feature","geometry":{"type":"Point","coordinates":[106.822847,-6.202348,0]},"properties":{"id":"26","latitude":"-6.202348","longitude":"106.822847","name":"ayam taliwang mbok sutil","description (produk)":"makanan berat (ayam)","tenant_type (umkm/franchise-tetap/seasonal)":"umkm-seasonal","period (tahun/bulan/minggu)":"1 tahun","transaction_per_day (ribu/juta/milliar)":"2.5 juta","tenant_area (meters squared)":"3.5 m x 3.5 m","target_market (pejalan kaki, pekerja kantoran, warga)":"pekerja kantoran, pejalan kaki","revenue_per_month":"35 juta","transaction_per_buyer":"40 ribu","rent_trend":"4%","rent_price_annual":"13 juta/bulan","rent_expiry_date":"none","tanggal_survey":"23-Agu-2026","kondisi_bangunan":"bagus","moda_terhubung":"stasiun","jarak_ke_stasiun_meter":"211","rent_price_annual_idr":"156000000","transaction_per_day_idr":"2500000","revenue_per_month_idr":"35000000","transaction_per_buyer_idr":"40000","rent_trend_pct":"4","period_months":"12"}},{"type":"Feature","geometry":{"type":"Point","coordinates":[106.822771,-6.202267,0]},"properties":{"id":"27","latitude":"-6.202267","longitude":"106.822771","name":"jeruk peras","description (produk)":"minuman","tenant_type (umkm/franchise-tetap/seasonal)":"umkm-seasonal","period (tahun/bulan/minggu)":"8 bulan","transaction_per_day (ribu/juta/milliar)":"600 ribu","tenant_area (meters squared)":"3.5 m x 3 m","target_market (pejalan kaki, pekerja kantoran, warga)":"pekerja kantoran, pejalan kaki","revenue_per_month":"15 juta","transaction_per_buyer":"20 ribu","rent_trend":"0%","rent_price_annual":"500 ribu/hari","rent_expiry_date":"none","tanggal_survey":"23-Agu-2026","kondisi_bangunan":"bagus","moda_terhubung":"stasiun","jarak_ke_stasiun_meter":"151","rent_price_annual_idr":"182500000","transaction_per_day_idr":"600000","revenue_per_month_idr":"15000000","transaction_per_buyer_idr":"20000","rent_trend_pct":"0","period_months":"8"}},{"type":"Feature","geometry":{"type":"Point","coordinates":[106.822768,-6.202332,0]},"properties":{"id":"28","latitude":"-6.202332","longitude":"106.822768","name":"warung sarapan","description (produk)":"makanan berat, makanan ringan (gorengan)","tenant_type (umkm/franchise-tetap/seasonal)":"umkm-tetap","period (tahun/bulan/minggu)":"10 tahun","transaction_per_day (ribu/juta/milliar)":"9 juta","tenant_area (meters squared)":"4 m x 10 m","target_market (pejalan kaki, pekerja kantoran, warga)":"pekerja kantoran, pejalan kaki","revenue_per_month":"250 juta","transaction_per_buyer":"30 ribu","rent_trend":"0%","rent_price_annual":"100 juta/tahun","rent_expiry_date":"none","tanggal_survey":"23-Agu-2026","kondisi_bangunan":"bagus","moda_terhubung":"stasiun","jarak_ke_stasiun_meter":"256","rent_price_annual_idr":"100000000","transaction_per_day_idr":"9000000","revenue_per_month_idr":"250000000","transaction_per_buyer_idr":"30000","rent_trend_pct":"0","period_months":"120"}},{"type":"Feature","geometry":{"type":"Point","coordinates":[106.822802,-6.20232,0]},"properties":{"id":"29","latitude":"-6.20232","longitude":"106.822802","name":"bubur ayam sunda paling ruhay","description (produk)":"makanan berat (bubur)","tenant_type (umkm/franchise-tetap/seasonal)":"umkm-tetap","period (tahun/bulan/minggu)":"8 tahun","transaction_per_day (ribu/juta/milliar)":"8 juta","tenant_area (meters squared)":"4 m x 10 m","target_market (pejalan kaki, pekerja kantoran, warga)":"pekerja kantoran, warga","revenue_per_month":"240 juta","transaction_per_buyer":"30 ribu","rent_trend":"0%","rent_price_annual":"100 juta/tahun","rent_expiry_date":"none","tanggal_survey":"23-Agu-2026","kondisi_bangunan":"bagus","moda_terhubung":"stasiun","jarak_ke_stasiun_meter":"186","rent_price_annual_idr":"100000000","transaction_per_day_idr":"8000000","revenue_per_month_idr":"240000000","transaction_per_buyer_idr":"30000","rent_trend_pct":"0","period_months":"96"}},{"type":"Feature","geometry":{"type":"Point","coordinates":[106.822779,-6.202307,0]},"properties":{"id":"30","latitude":"-6.202307","longitude":"106.822779","name":"ponut donat kentang","description (produk)":"snacks (donat)","tenant_type (umkm/franchise-tetap/seasonal)":"umkm-tetap","period (tahun/bulan/minggu)":"2 bulan","transaction_per_day (ribu/juta/milliar)":"7 juta","tenant_area (meters squared)":"3 m x 3 m","target_market (pejalan kaki, pekerja kantoran, warga)":"pekerja kantoran, warga","revenue_per_month":"180 juta","transaction_per_buyer":"50 ribu","rent_trend":"0%","rent_price_annual":"800 ribu/bulan","rent_expiry_date":"none","tanggal_survey":"23-Agu-2026","kondisi_bangunan":"bagus","moda_terhubung":"stasiun","jarak_ke_stasiun_meter":"161","rent_price_annual_idr":"9600000","transaction_per_day_idr":"7000000","revenue_per_month_idr":"180000000","transaction_per_buyer_idr":"50000","rent_trend_pct":"0","period_months":"2"}},{"type":"Feature","geometry":{"type":"Point","coordinates":[106.822764,-6.202289,0]},"properties":{"id":"31","latitude":"-6.202289","longitude":"106.822764","name":"auntie annes","description (produk)":"bakery, dessert","tenant_type (umkm/franchise-tetap/seasonal)":"umkm-tetap","period (tahun/bulan/minggu)":"2 tahun","transaction_per_day (ribu/juta/milliar)":"9 juta","tenant_area (meters squared)":"3.5 m x 3 m","target_market (pejalan kaki, pekerja kantoran, warga)":"pekerja kantoran, pejalan kaki","revenue_per_month":"200 juta","transaction_per_buyer":"60 ribu","rent_trend":"0%","rent_price_annual":"1.3 juta/bulan","rent_expiry_date":"none","tanggal_survey":"23-Agu-2026","kondisi_bangunan":"bagus","moda_terhubung":"stasiun","jarak_ke_stasiun_meter":"163","rent_price_annual_idr":"15600000","transaction_per_day_idr":"9000000","revenue_per_month_idr":"200000000","transaction_per_buyer_idr":"60000","rent_trend_pct":"0","period_months":"24"}},{"type":"Feature","geometry":{"type":"Point","coordinates":[106.822787,-6.202321,0]},"properties":{"id":"32","latitude":"-6.202321","longitude":"106.822787","name":"koi","description (produk)":"minuman, dessert","tenant_type (umkm/franchise-tetap/seasonal)":"umkm-tetap","period (tahun/bulan/minggu)":"5 tahun","transaction_per_day (ribu/juta/milliar)":"7.5 juta","tenant_area (meters squared)":"4 m x 4 m","target_market (pejalan kaki, pekerja kantoran, warga)":"pekerja kantoran, pejalan kaki","revenue_per_month":"220 juta","transaction_per_buyer":"40 ribu","rent_trend":"0%","rent_price_annual":"1 juta / bulan","rent_expiry_date":"none","tanggal_survey":"23-Agu-2026","kondisi_bangunan":"bagus","moda_terhubung":"stasiun","jarak_ke_stasiun_meter":"107","rent_price_annual_idr":"12000000","transaction_per_day_idr":"7500000","revenue_per_month_idr":"220000000","transaction_per_buyer_idr":"40000","rent_trend_pct":"0","period_months":"60"}},{"type":"Feature","geometry":{"type":"Point","coordinates":[106.822829,-6.202304,0]},"properties":{"id":"33","latitude":"-6.202304","longitude":"106.822829","name":"gaga","description (produk)":"minuman, dessert","tenant_type (umkm/franchise-tetap/seasonal)":"umkm-tetap","period (tahun/bulan/minggu)":"6 bulan","transaction_per_day (ribu/juta/milliar)":"9.5 juta","tenant_area (meters squared)":"4 m x 4 m","target_market (pejalan kaki, pekerja kantoran, warga)":"pekerja kantoran, pejalan kaki","revenue_per_month":"250 juta","transaction_per_buyer":"40 ribu","rent_trend":"0%","rent_price_annual":"1.2 juta / bulan","rent_expiry_date":"none","tanggal_survey":"23-Agu-2026","kondisi_bangunan":"bagus","moda_terhubung":"stasiun","jarak_ke_stasiun_meter":"73","rent_price_annual_idr":"14400000","transaction_per_day_idr":"9500000","revenue_per_month_idr":"250000000","transaction_per_buyer_idr":"40000","rent_trend_pct":"0","period_months":"6"}},{"type":"Feature","geometry":{"type":"Point","coordinates":[106.822801,-6.20233,0]},"properties":{"id":"34","latitude":"-6.20233","longitude":"106.822801","name":"mochi mochio","description (produk)":"bakery, dessert","tenant_type (umkm/franchise-tetap/seasonal)":"umkm-tetap","period (tahun/bulan/minggu)":"4 bulan","transaction_per_day (ribu/juta/milliar)":"8 juta","tenant_area (meters squared)":"3 m x 3 m","target_market (pejalan kaki, pekerja kantoran, warga)":"pekerja kantoran, pejalan kaki","revenue_per_month":"200 juta","transaction_per_buyer":"35 ribu","rent_trend":"0%","rent_price_annual":"1.1 juta / bulan","rent_expiry_date":"none","tanggal_survey":"23-Agu-2026","kondisi_bangunan":"bagus","moda_terhubung":"stasiun","jarak_ke_stasiun_meter":"189","rent_price_annual_idr":"13200000","transaction_per_day_idr":"8000000","revenue_per_month_idr":"200000000","transaction_per_buyer_idr":"35000","rent_trend_pct":"0","period_months":"4"}},{"type":"Feature","geometry":{"type":"Point","coordinates":[106.822755,-6.202291,0]},"properties":{"id":"35","latitude":"-6.202291","longitude":"106.822755","name":"honey bakery loaf","description (produk)":"bakery","tenant_type (umkm/franchise-tetap/seasonal)":"umkm-tetap","period (tahun/bulan/minggu)":"1 tahun","transaction_per_day (ribu/juta/milliar)":"5 juta","tenant_area (meters squared)":"2 m x 2 m","target_market (pejalan kaki, pekerja kantoran, warga)":"pekerja kantoran, pejalan kaki","revenue_per_month":"120 juta","transaction_per_buyer":"25 ribu","rent_trend":"0%","rent_price_annual":"800 ribu / bulan","rent_expiry_date":"none","tanggal_survey":"23-Agu-2026","kondisi_bangunan":"bagus","moda_terhubung":"stasiun","jarak_ke_stasiun_meter":"272","rent_price_annual_idr":"9600000","transaction_per_day_idr":"5000000","revenue_per_month_idr":"120000000","transaction_per_buyer_idr":"25000","rent_trend_pct":"0","period_months":"12"}},{"type":"Feature","geometry":{"type":"Point","coordinates":[106.822767,-6.202289,0]},"properties":{"id":"36","latitude":"-6.202289","longitude":"106.822767","name":"masakan padang sederhana","description (produk)":"makanan berat (nasi)","tenant_type (umkm/franchise-tetap/seasonal)":"umkm-tetap","period (tahun/bulan/minggu)":"6 tahun","transaction_per_day (ribu/juta/milliar)":"1 juta","tenant_area (meters squared)":"3 m x 10 m","target_market (pejalan kaki, pekerja kantoran, warga)":"pekerja kantoran, warga","revenue_per_month":"12 juta","transaction_per_buyer":"25 ribu","rent_trend":"0%","rent_price_annual":"50 juta","rent_expiry_date":"none","tanggal_survey":"23-Agu-2026","kondisi_bangunan":"bagus","moda_terhubung":"stasiun","jarak_ke_stasiun_meter":"66","rent_price_annual_idr":"50000000","transaction_per_day_idr":"1000000","revenue_per_month_idr":"12000000","transaction_per_buyer_idr":"25000","rent_trend_pct":"0","period_months":"72"}},{"type":"Feature","geometry":{"type":"Point","coordinates":[106.822845,-6.202343,0]},"properties":{"id":"37","latitude":"-6.202343","longitude":"106.822845","name":"soto betawi","description (produk)":"makanan berat (soto)","tenant_type (umkm/franchise-tetap/seasonal)":"umkm-tetap","period (tahun/bulan/minggu)":"5 tahun","transaction_per_day (ribu/juta/milliar)":"800 ribu","tenant_area (meters squared)":"3 m x 10 m","target_market (pejalan kaki, pekerja kantoran, warga)":"pekerja kantoran, warga","revenue_per_month":"10 juta","transaction_per_buyer":"30 ribu","rent_trend":"0%","rent_price_annual":"50 juta","rent_expiry_date":"none","tanggal_survey":"23-Agu-2026","kondisi_bangunan":"bagus","moda_terhubung":"stasiun","jarak_ke_stasiun_meter":"265","rent_price_annual_idr":"50000000","transaction_per_day_idr":"800000","revenue_per_month_idr":"10000000","transaction_per_buyer_idr":"30000","rent_trend_pct":"0","period_months":"60"}},{"type":"Feature","geometry":{"type":"Point","coordinates":[106.822831,-6.202253,0]},"properties":{"id":"38","latitude":"-6.202253","longitude":"106.822831","name":"nona tjioe","description (produk)":"makanan berat","tenant_type (umkm/franchise-tetap/seasonal)":"umkm-tetap","period (tahun/bulan/minggu)":"9 tahun","transaction_per_day (ribu/juta/milliar)":"4 juta","tenant_area (meters squared)":"3 m x 4 m","target_market (pejalan kaki, pekerja kantoran, warga)":"pekerja kantoran, pejalan kaki, warga","revenue_per_month":"100 juta","transaction_per_buyer":"40 ribu","rent_trend":"0%","rent_price_annual":"","rent_expiry_date":"none","tanggal_survey":"23-Agu-2026","kondisi_bangunan":"bagus","moda_terhubung":"stasiun","jarak_ke_stasiun_meter":"257","rent_price_annual_idr":"91250000","transaction_per_day_idr":"4000000","revenue_per_month_idr":"100000000","transaction_per_buyer_idr":"40000","rent_trend_pct":"0","period_months":"108"}},{"type":"Feature","geometry":{"type":"Point","coordinates":[106.82276,-6.20232,0]},"properties":{"id":"39","latitude":"-6.20232","longitude":"106.82276","name":"tekakla klappertaart","description (produk)":"bakery, dessert","tenant_type (umkm/franchise-tetap/seasonal)":"umkm-tetap","period (tahun/bulan/minggu)":"6 tahun","transaction_per_day (ribu/juta/milliar)":"3.5 juta","tenant_area (meters squared)":"4 m x 4 m","target_market (pejalan kaki, pekerja kantoran, warga)":"pekerja kantoran, pejalan kaki, warga","revenue_per_month":"90 juta","transaction_per_buyer":"30 ribu","rent_trend":"0%","rent_price_annual":"","rent_expiry_date":"none","tanggal_survey":"23-Agu-2026","kondisi_bangunan":"bagus","moda_terhubung":"stasiun","jarak_ke_stasiun_meter":"119","rent_price_annual_idr":"91250000","transaction_per_day_idr":"3500000","revenue_per_month_idr":"90000000","transaction_per_buyer_idr":"30000","rent_trend_pct":"0","period_months":"72"}},{"type":"Feature","geometry":{"type":"Point","coordinates":[106.822794,-6.202282,0]},"properties":{"id":"40","latitude":"-6.202282","longitude":"106.822794","name":"sansday","description (produk)":"makanan berat (nasi)","tenant_type (umkm/franchise-tetap/seasonal)":"umkm-tetap","period (tahun/bulan/minggu)":"6 tahun","transaction_per_day (ribu/juta/milliar)":"4 juta","tenant_area (meters squared)":"4 m x 4 m","target_market (pejalan kaki, pekerja kantoran, warga)":"pekerja kantoran, pejalan kaki, warga","revenue_per_month":"95 juta","transaction_per_buyer":"35 ribu","rent_trend":"0%","rent_price_annual":"","rent_expiry_date":"none","tanggal_survey":"23-Agu-2026","kondisi_bangunan":"bagus","moda_terhubung":"stasiun","jarak_ke_stasiun_meter":"208","rent_price_annual_idr":"91250000","transaction_per_day_idr":"4000000","revenue_per_month_idr":"95000000","transaction_per_buyer_idr":"35000","rent_trend_pct":"0","period_months":"72"}},{"type":"Feature","geometry":{"type":"Point","coordinates":[106.8228,-6.202338,0]},"properties":{"id":"41","latitude":"-6.202338","longitude":"106.8228","name":"bakmie kasih","description (produk)":"makanan berat (mie)","tenant_type (umkm/franchise-tetap/seasonal)":"umkm-tetap","period (tahun/bulan/minggu)":"4 tahun","transaction_per_day (ribu/juta/milliar)":"3.5 juta","tenant_area (meters squared)":"5 m x 5 m","target_market (pejalan kaki, pekerja kantoran, warga)":"pekerja kantoran, pejalan kaki, warga","revenue_per_month":"85 juta","transaction_per_buyer":"30 ribu","rent_trend":"0%","rent_price_annual":"","rent_expiry_date":"none","tanggal_survey":"23-Agu-2026","kondisi_bangunan":"bagus","moda_terhubung":"stasiun","jarak_ke_stasiun_meter":"91","rent_price_annual_idr":"91250000","transaction_per_day_idr":"3500000","revenue_per_month_idr":"85000000","transaction_per_buyer_idr":"30000","rent_trend_pct":"0","period_months":"48"}},{"type":"Feature","geometry":{"type":"Point","coordinates":[106.7998211,-6.2438357,0]},"properties":{"id":"42","latitude":"-6.2438357","longitude":"106.7998211","name":"makanqu (Sudut)","description (produk)":"makanan berat","tenant_type (umkm/franchise-tetap/seasonal)":"umkm-tetap","period (tahun/bulan/minggu)":"","transaction_per_day (ribu/juta/milliar)":"","tenant_area (meters squared)":"4 m x 3 m","target_market (pejalan kaki, pekerja kantoran, warga)":"pekerja kantoran, pejalan kaki","revenue_per_month":"","transaction_per_buyer":"","rent_trend":"","rent_price_annual":"","rent_expiry_date":"none","tanggal_survey":"23-Agu-2026","kondisi_bangunan":"bagus","moda_terhubung":"akses pejalan kaki","jarak_ke_stasiun_meter":"240","rent_price_annual_idr":"91250000","transaction_per_day_idr":"1950000","revenue_per_month_idr":"41000000","transaction_per_buyer_idr":"35000","rent_trend_pct":"0","period_months":"12"}},{"type":"Feature","geometry":{"type":"Point","coordinates":[106.7999142,-6.2440944,0]},"properties":{"id":"50","latitude":"-6.2440944","longitude":"106.7999142","name":"Mie Tek Tek Sultan","description (produk)":"Makanan berat (kwetiau, nasi goreng)","tenant_type (umkm/franchise-tetap/seasonal)":"umkm-seasonal","period (tahun/bulan/minggu)":"2-3 tahun","transaction_per_day (ribu/juta/milliar)":"1-2 juta weekday, 2-3 juta weekend","tenant_area (meters squared)":"4 m x 3 m","target_market (pejalan kaki, pekerja kantoran, warga)":"Warga, pejalan kaki, pekerja kantoran","revenue_per_month":"","transaction_per_buyer":"","rent_trend":"","rent_price_annual":"4 juta/bln + 30% revenue","rent_expiry_date":"none","tanggal_survey":"23-Agu-2026","kondisi_bangunan":"bagus","moda_terhubung":"akses pejalan kaki","jarak_ke_stasiun_meter":"300","rent_price_annual_idr":"91250000","transaction_per_day_idr":"1950000","revenue_per_month_idr":"41000000","transaction_per_buyer_idr":"35000","rent_trend_pct":"0","period_months":"12"}},{"type":"Feature","geometry":{"type":"Point","coordinates":[106.7999586,-6.2440885,0]},"properties":{"id":"51","latitude":"-6.2440885","longitude":"106.7999586","name":"MakanQu","description (produk)":"Makanan berat (nasi, mie)","tenant_type (umkm/franchise-tetap/seasonal)":"umkm-tetap","period (tahun/bulan/minggu)":"3 tahun","transaction_per_day (ribu/juta/milliar)":"4-6 juta/hari","tenant_area (meters squared)":"4 m x 3 m","target_market (pejalan kaki, pekerja kantoran, warga)":"Pejalan kaki, pekerja kantoran","revenue_per_month":"","transaction_per_buyer":"","rent_trend":"","rent_price_annual":"Tidak tahu","rent_expiry_date":"none","tanggal_survey":"31-Agu-2026","kondisi_bangunan":"bagus","moda_terhubung":"akses pejalan kaki","jarak_ke_stasiun_meter":"200","rent_price_annual_idr":"91250000","transaction_per_day_idr":"1950000","revenue_per_month_idr":"41000000","transaction_per_buyer_idr":"35000","rent_trend_pct":"0","period_months":"36"}},{"type":"Feature","geometry":{"type":"Point","coordinates":[106.7999613,-6.2441058,0]},"properties":{"id":"52","latitude":"-6.2441058","longitude":"106.7999613","name":"Nyonya Tebu","description (produk)":"Minuman (tebu varian leci, yakult)","tenant_type (umkm/franchise-tetap/seasonal)":"umkm-seasonal","period (tahun/bulan/minggu)":"2 minggu","transaction_per_day (ribu/juta/milliar)":"1 juta weekday, 2-3 juta weekend","tenant_area (meters squared)":"4 m x 3 m","target_market (pejalan kaki, pekerja kantoran, warga)":"Warga, pejalan kaki, pekerja kantoran","revenue_per_month":"","transaction_per_buyer":"","rent_trend":"","rent_price_annual":"4 juta/bln + 30% revenue","rent_expiry_date":"none","tanggal_survey":"23-Agu-2026","kondisi_bangunan":"bagus","moda_terhubung":"akses pejalan kaki","jarak_ke_stasiun_meter":"300","rent_price_annual_idr":"91250000","transaction_per_day_idr":"1950000","revenue_per_month_idr":"41000000","transaction_per_buyer_idr":"35000","rent_trend_pct":"0","period_months":"0.461538462"}},{"type":"Feature","geometry":{"type":"Point","coordinates":[106.7999264,-6.2440598,0]},"properties":{"id":"53","latitude":"-6.2440598","longitude":"106.7999264","name":"Thai Tea Dong Ca Phe","description (produk)":"Minuman (thai tea)","tenant_type (umkm/franchise-tetap/seasonal)":"umkm-seasonal","period (tahun/bulan/minggu)":"2-3 tahun","transaction_per_day (ribu/juta/milliar)":"4-5 juta weekday, 10-15 juta weekend","tenant_area (meters squared)":"4 m x 3 m","target_market (pejalan kaki, pekerja kantoran, warga)":"Warga, pejalan kaki, pekerja kantoran","revenue_per_month":"","transaction_per_buyer":"","rent_trend":"","rent_price_annual":"4 juta/bln + 30% revenue","rent_expiry_date":"none","tanggal_survey":"23-Agu-2026","kondisi_bangunan":"bagus","moda_terhubung":"akses pejalan kaki","jarak_ke_stasiun_meter":"300","rent_price_annual_idr":"91250000","transaction_per_day_idr":"1950000","revenue_per_month_idr":"41000000","transaction_per_buyer_idr":"35000","rent_trend_pct":"0","period_months":"12"}},{"type":"Feature","geometry":{"type":"Point","coordinates":[106.7999358,-6.2440225,0]},"properties":{"id":"54","latitude":"-6.2440225","longitude":"106.7999358","name":"Nongnooch Thai Mango","description (produk)":"Minuman (thai tea mangga)","tenant_type (umkm/franchise-tetap/seasonal)":"umkm-seasonal","period (tahun/bulan/minggu)":"5-6 bulan","transaction_per_day (ribu/juta/milliar)":"7-8 juta weekday, 10-15 juta weekend","tenant_area (meters squared)":"4 m x 3 m","target_market (pejalan kaki, pekerja kantoran, warga)":"Warga, pejalan kaki, pekerja kantoran","revenue_per_month":"","transaction_per_buyer":"","rent_trend":"","rent_price_annual":"4 juta/bln + 30% revenue","rent_expiry_date":"none","tanggal_survey":"23-Agu-2026","kondisi_bangunan":"bagus","moda_terhubung":"akses pejalan kaki","jarak_ke_stasiun_meter":"300","rent_price_annual_idr":"91250000","transaction_per_day_idr":"1950000","revenue_per_month_idr":"41000000","transaction_per_buyer_idr":"35000","rent_trend_pct":"0","period_months":"12"}},{"type":"Feature","geometry":{"type":"Point","coordinates":[106.7999291,-6.2441185,0]},"properties":{"id":"55","latitude":"-6.2441185","longitude":"106.7999291","name":"Salmon Ochazuke","description (produk)":"Makanan berat (salmon, seafood)","tenant_type (umkm/franchise-tetap/seasonal)":"umkm-seasonal","period (tahun/bulan/minggu)":"2 minggu","transaction_per_day (ribu/juta/milliar)":"1 juta low traffic, 2-3 juta high","tenant_area (meters squared)":"4 m x 3 m","target_market (pejalan kaki, pekerja kantoran, warga)":"Warga, pejalan kaki, pekerja kantoran","revenue_per_month":"","transaction_per_buyer":"","rent_trend":"","rent_price_annual":"4 juta/bln + 30% revenue","rent_expiry_date":"none","tanggal_survey":"23-Agu-2026","kondisi_bangunan":"bagus","moda_terhubung":"akses pejalan kaki","jarak_ke_stasiun_meter":"300","rent_price_annual_idr":"91250000","transaction_per_day_idr":"1950000","revenue_per_month_idr":"41000000","transaction_per_buyer_idr":"35000","rent_trend_pct":"0","period_months":"0.461538462"}},{"type":"Feature","geometry":{"type":"Point","coordinates":[106.7999237,-6.2441272,0]},"properties":{"id":"56","latitude":"-6.2441272","longitude":"106.7999237","name":"Kantin Pojok","description (produk)":"Makanan berat & minuman","tenant_type (umkm/franchise-tetap/seasonal)":"umkm-tetap","period (tahun/bulan/minggu)":"8 tahun","transaction_per_day (ribu/juta/milliar)":"3.5-5 juta/hari","tenant_area (meters squared)":"4 m x 3 m","target_market (pejalan kaki, pekerja kantoran, warga)":"Pejalan kaki, pekerja kantoran","revenue_per_month":"","transaction_per_buyer":"","rent_trend":"","rent_price_annual":"Per bulan","rent_expiry_date":"none","tanggal_survey":"30-Agu-2026","kondisi_bangunan":"bagus","moda_terhubung":"akses pejalan kaki","jarak_ke_stasiun_meter":"200-300","rent_price_annual_idr":"91250000","transaction_per_day_idr":"1950000","revenue_per_month_idr":"41000000","transaction_per_buyer_idr":"35000","rent_trend_pct":"0","period_months":"96"}},{"type":"Feature","geometry":{"type":"Point","coordinates":[106.7999237,-6.2441672,0]},"properties":{"id":"57","latitude":"-6.2441672","longitude":"106.7999237","name":"Acoconut","description (produk)":"Dessert & minuman kelapa","tenant_type (umkm/franchise-tetap/seasonal)":"umkm-tetap","period (tahun/bulan/minggu)":"4-6 bulan","transaction_per_day (ribu/juta/milliar)":"2-3 juta weekday, 4-5 juta weekend","tenant_area (meters squared)":"4 m x 3 m","target_market (pejalan kaki, pekerja kantoran, warga)":"Pejalan kaki, pekerja kantoran","revenue_per_month":"","transaction_per_buyer":"","rent_trend":"","rent_price_annual":"1-1.5 juta/bulan per m2","rent_expiry_date":"none","tanggal_survey":"31-Agu-2026","kondisi_bangunan":"bagus","moda_terhubung":"akses pejalan kaki","jarak_ke_stasiun_meter":"300-400","rent_price_annual_idr":"91250000","transaction_per_day_idr":"1950000","revenue_per_month_idr":"41000000","transaction_per_buyer_idr":"35000","rent_trend_pct":"0","period_months":"12"}},{"type":"Feature","geometry":{"type":"Point","coordinates":[106.7999559,-6.2441465,0]},"properties":{"id":"58","latitude":"-6.2441465","longitude":"106.7999559","name":"Rumah Makan Son Masakan Padang","description (produk)":"Makanan berat (padang)","tenant_type (umkm/franchise-tetap/seasonal)":"umkm-tetap","period (tahun/bulan/minggu)":"9 tahun","transaction_per_day (ribu/juta/milliar)":"3-4 juta weekday, 5-6 juta weekend","tenant_area (meters squared)":"4 m x 3 m","target_market (pejalan kaki, pekerja kantoran, warga)":"Pejalan kaki, pekerja kantoran","revenue_per_month":"","transaction_per_buyer":"","rent_trend":"","rent_price_annual":"Per bulan","rent_expiry_date":"none","tanggal_survey":"30-Agu-2026","kondisi_bangunan":"bagus","moda_terhubung":"akses pejalan kaki","jarak_ke_stasiun_meter":"200-300","rent_price_annual_idr":"91250000","transaction_per_day_idr":"1950000","revenue_per_month_idr":"41000000","transaction_per_buyer_idr":"35000","rent_trend_pct":"0","period_months":"108"}},{"type":"Feature","geometry":{"type":"Point","coordinates":[106.7999242,-6.2441938,0]},"properties":{"id":"59","latitude":"-6.2441938","longitude":"106.7999242","name":"Its a Coin","description (produk)":"Dessert (roti)","tenant_type (umkm/franchise-tetap/seasonal)":"umkm-seasonal","period (tahun/bulan/minggu)":"3 tahun","transaction_per_day (ribu/juta/milliar)":"2-3 juta weekday, 7 juta weekend","tenant_area (meters squared)":"4 m x 3 m","target_market (pejalan kaki, pekerja kantoran, warga)":"Warga, pejalan kaki, pekerja kantoran","revenue_per_month":"","transaction_per_buyer":"","rent_trend":"","rent_price_annual":"4 juta/bln + 30% revenue","rent_expiry_date":"none","tanggal_survey":"23-Agu-2026","kondisi_bangunan":"bagus","moda_terhubung":"akses pejalan kaki","jarak_ke_stasiun_meter":"300","rent_price_annual_idr":"91250000","transaction_per_day_idr":"1950000","revenue_per_month_idr":"41000000","transaction_per_buyer_idr":"35000","rent_trend_pct":"0","period_months":"36"}},{"type":"Feature","geometry":{"type":"Point","coordinates":[106.7999531,-6.2442025,0]},"properties":{"id":"60","latitude":"-6.2442025","longitude":"106.7999531","name":"Tahu Go","description (produk)":"Makanan ringan (tahu goreng seasoning)","tenant_type (umkm/franchise-tetap/seasonal)":"umkm-tetap","period (tahun/bulan/minggu)":"1 bulan","transaction_per_day (ribu/juta/milliar)":"500 ribu weekday, 1 juta weekend","tenant_area (meters squared)":"4 m x 3 m","target_market (pejalan kaki, pekerja kantoran, warga)":"Warga, pejalan kaki, pekerja kantoran","revenue_per_month":"","transaction_per_buyer":"","rent_trend":"","rent_price_annual":"2.5 juta/bulan","rent_expiry_date":"none","tanggal_survey":"23-Agu-2026","kondisi_bangunan":"bagus","moda_terhubung":"akses pejalan kaki","jarak_ke_stasiun_meter":"300","rent_price_annual_idr":"30000000","transaction_per_day_idr":"1950000","revenue_per_month_idr":"41000000","transaction_per_buyer_idr":"35000","rent_trend_pct":"0","period_months":"1"}},{"type":"Feature","geometry":{"type":"Point","coordinates":[106.7999229,-6.2442258,0]},"properties":{"id":"61","latitude":"-6.2442258","longitude":"106.7999229","name":"Seblak Neng Prasmanan","description (produk)":"Makanan berat (seblak)","tenant_type (umkm/franchise-tetap/seasonal)":"umkm-tetap","period (tahun/bulan/minggu)":"7 bulan","transaction_per_day (ribu/juta/milliar)":"2-2.5 juta weekday, 5-6 juta weekend","tenant_area (meters squared)":"4 m x 3 m","target_market (pejalan kaki, pekerja kantoran, warga)":"Warga, pejalan kaki, pekerja kantoran","revenue_per_month":"","transaction_per_buyer":"","rent_trend":"","rent_price_annual":"1-1.5 juta/bulan","rent_expiry_date":"none","tanggal_survey":"23-Agu-2026","kondisi_bangunan":"bagus","moda_terhubung":"akses pejalan kaki","jarak_ke_stasiun_meter":"300","rent_price_annual_idr":"91250000","transaction_per_day_idr":"1950000","revenue_per_month_idr":"41000000","transaction_per_buyer_idr":"35000","rent_trend_pct":"0","period_months":"7"}},{"type":"Feature","geometry":{"type":"Point","coordinates":[106.7999517,-6.2442891,0]},"properties":{"id":"62","latitude":"-6.2442891","longitude":"106.7999517","name":"Thai Banana Pancake","description (produk)":"Makanan ringan (pancake)","tenant_type (umkm/franchise-tetap/seasonal)":"umkm-tetap","period (tahun/bulan/minggu)":"1 tahun","transaction_per_day (ribu/juta/milliar)":"1.5-2 juta weekday, 3-4 juta weekend","tenant_area (meters squared)":"4 m x 3 m","target_market (pejalan kaki, pekerja kantoran, warga)":"Warga, pejalan kaki, pekerja kantoran","revenue_per_month":"","transaction_per_buyer":"","rent_trend":"","rent_price_annual":"1-1.5 juta/bulan","rent_expiry_date":"none","tanggal_survey":"23-Agu-2026","kondisi_bangunan":"bagus","moda_terhubung":"akses pejalan kaki","jarak_ke_stasiun_meter":"300","rent_price_annual_idr":"91250000","transaction_per_day_idr":"1950000","revenue_per_month_idr":"41000000","transaction_per_buyer_idr":"35000","rent_trend_pct":"0","period_months":"12"}},{"type":"Feature","geometry":{"type":"Point","coordinates":[106.7999196,-6.2442965,0]},"properties":{"id":"63","latitude":"-6.2442965","longitude":"106.7999196","name":"Makaroni Ngene","description (produk)":"Makanan ringan (makaroni, mie, basreng)","tenant_type (umkm/franchise-tetap/seasonal)":"umkm-tetap","period (tahun/bulan/minggu)":"1 tahun","transaction_per_day (ribu/juta/milliar)":"800 ribu weekday, 2 juta weekend","tenant_area (meters squared)":"4 m x 3 m","target_market (pejalan kaki, pekerja kantoran, warga)":"Warga, pejalan kaki, pekerja kantoran","revenue_per_month":"","transaction_per_buyer":"","rent_trend":"","rent_price_annual":"1-1.5 juta/bulan","rent_expiry_date":"none","tanggal_survey":"23-Agu-2026","kondisi_bangunan":"bagus","moda_terhubung":"akses pejalan kaki","jarak_ke_stasiun_meter":"300","rent_price_annual_idr":"91250000","transaction_per_day_idr":"1950000","revenue_per_month_idr":"41000000","transaction_per_buyer_idr":"35000","rent_trend_pct":"0","period_months":"12"}},{"type":"Feature","geometry":{"type":"Point","coordinates":[106.7999524,-6.2442971,0]},"properties":{"id":"64","latitude":"-6.2442971","longitude":"106.7999524","name":"Salmon Mentaiku","description (produk)":"Makanan ringan (mentai, chicken katsu)","tenant_type (umkm/franchise-tetap/seasonal)":"umkm-tetap","period (tahun/bulan/minggu)":"3 bulan","transaction_per_day (ribu/juta/milliar)":"1.2 juta weekday, 2.5 juta weekend","tenant_area (meters squared)":"4 m x 3 m","target_market (pejalan kaki, pekerja kantoran, warga)":"Warga, pejalan kaki, pekerja kantoran","revenue_per_month":"","transaction_per_buyer":"","rent_trend":"","rent_price_annual":"1-1.5 juta/bulan","rent_expiry_date":"none","tanggal_survey":"23-Agu-2026","kondisi_bangunan":"bagus","moda_terhubung":"akses pejalan kaki","jarak_ke_stasiun_meter":"300","rent_price_annual_idr":"91250000","transaction_per_day_idr":"1950000","revenue_per_month_idr":"41000000","transaction_per_buyer_idr":"35000","rent_trend_pct":"0","period_months":"3"}},{"type":"Feature","geometry":{"type":"Point","coordinates":[106.7999196,-6.2443031,0]},"properties":{"id":"65","latitude":"-6.2443031","longitude":"106.7999196","name":"Jeruk Peras Oppa","description (produk)":"Minuman (jeruk peras, air mineral)","tenant_type (umkm/franchise-tetap/seasonal)":"umkm-tetap","period (tahun/bulan/minggu)":"1.5 tahun","transaction_per_day (ribu/juta/milliar)":"1 juta weekday, 4 juta weekend","tenant_area (meters squared)":"4 m x 3 m","target_market (pejalan kaki, pekerja kantoran, warga)":"Warga, pejalan kaki, pekerja kantoran","revenue_per_month":"","transaction_per_buyer":"","rent_trend":"","rent_price_annual":"2-3 juta/bulan","rent_expiry_date":"none","tanggal_survey":"23-Agu-2026","kondisi_bangunan":"bagus","moda_terhubung":"akses pejalan kaki","jarak_ke_stasiun_meter":"300","rent_price_annual_idr":"91250000","transaction_per_day_idr":"1950000","revenue_per_month_idr":"41000000","transaction_per_buyer_idr":"35000","rent_trend_pct":"0","period_months":"18"}},{"type":"Feature","geometry":{"type":"Point","coordinates":[106.7999504,-6.2443125,0]},"properties":{"id":"66","latitude":"-6.2443125","longitude":"106.7999504","name":"Spagesteak","description (produk)":"Makanan berat (steak daging)","tenant_type (umkm/franchise-tetap/seasonal)":"umkm-seasonal","period (tahun/bulan/minggu)":"2 minggu","transaction_per_day (ribu/juta/milliar)":"3 juta weekday, 5-6 juta weekend","tenant_area (meters squared)":"4 m x 3 m","target_market (pejalan kaki, pekerja kantoran, warga)":"Warga, pejalan kaki, pekerja kantoran","revenue_per_month":"","transaction_per_buyer":"","rent_trend":"","rent_price_annual":"4 juta/bulan + 30% revenue","rent_expiry_date":"none","tanggal_survey":"23-Agu-2026","kondisi_bangunan":"bagus","moda_terhubung":"akses pejalan kaki","jarak_ke_stasiun_meter":"300","rent_price_annual_idr":"91250000","transaction_per_day_idr":"1950000","revenue_per_month_idr":"41000000","transaction_per_buyer_idr":"35000","rent_trend_pct":"0","period_months":"0.461538462"}},{"type":"Feature","geometry":{"type":"Point","coordinates":[106.7999189,-6.2443498,0]},"properties":{"id":"67","latitude":"-6.2443498","longitude":"106.7999189","name":"Dimsum Lumer & Juicy Goza","description (produk)":"Makanan ringan (dimsum mentai)","tenant_type (umkm/franchise-tetap/seasonal)":"umkm-seasonal","period (tahun/bulan/minggu)":"2 tahun","transaction_per_day (ribu/juta/milliar)":"3-4 juta weekday, 5-6 juta weekend","tenant_area (meters squared)":"4 m x 3 m","target_market (pejalan kaki, pekerja kantoran, warga)":"Warga, pejalan kaki, pekerja kantoran","revenue_per_month":"","transaction_per_buyer":"","rent_trend":"","rent_price_annual":"4 juta/bulan + 30% revenue","rent_expiry_date":"none","tanggal_survey":"23-Agu-2026","kondisi_bangunan":"bagus","moda_terhubung":"akses pejalan kaki","jarak_ke_stasiun_meter":"300","rent_price_annual_idr":"91250000","transaction_per_day_idr":"1950000","revenue_per_month_idr":"41000000","transaction_per_buyer_idr":"35000","rent_trend_pct":"0","period_months":"24"}},{"type":"Feature","geometry":{"type":"Point","coordinates":[106.7999562,-6.2443795,0]},"properties":{"id":"68","latitude":"-6.2443795","longitude":"106.7999562","name":"Sangthai","description (produk)":"Minuman (teh, leci, milo)","tenant_type (umkm/franchise-tetap/seasonal)":"umkm-seasonal","period (tahun/bulan/minggu)":"2 minggu","transaction_per_day (ribu/juta/milliar)":"2.5 juta / hari","tenant_area (meters squared)":"4 m x 3 m","target_market (pejalan kaki, pekerja kantoran, warga)":"Warga, pejalan kaki, pekerja kantoran","revenue_per_month":"","transaction_per_buyer":"","rent_trend":"","rent_price_annual":"4 juta/bulan + 30% revenue","rent_expiry_date":"none","tanggal_survey":"23-Agu-2026","kondisi_bangunan":"bagus","moda_terhubung":"akses pejalan kaki","jarak_ke_stasiun_meter":"300","rent_price_annual_idr":"91250000","transaction_per_day_idr":"1950000","revenue_per_month_idr":"41000000","transaction_per_buyer_idr":"35000","rent_trend_pct":"0","period_months":"0.461538462"}},{"type":"Feature","geometry":{"type":"Point","coordinates":[106.7999207,-6.2444008,0]},"properties":{"id":"69","latitude":"-6.2444008","longitude":"106.7999207","name":"Kuliner Bun Bun","description (produk)":"Minuman & rujak (sirup, juice)","tenant_type (umkm/franchise-tetap/seasonal)":"umkm-seasonal","period (tahun/bulan/minggu)":"22 tahun","transaction_per_day (ribu/juta/milliar)":"2 juta / hari","tenant_area (meters squared)":"4 m x 3 m","target_market (pejalan kaki, pekerja kantoran, warga)":"Warga, pejalan kaki, pekerja kantoran","revenue_per_month":"","transaction_per_buyer":"","rent_trend":"","rent_price_annual":"4 juta/bulan + 30% revenue","rent_expiry_date":"none","tanggal_survey":"23-Agu-2026","kondisi_bangunan":"bagus","moda_terhubung":"akses pejalan kaki","jarak_ke_stasiun_meter":"300","rent_price_annual_idr":"91250000","transaction_per_day_idr":"1950000","revenue_per_month_idr":"41000000","transaction_per_buyer_idr":"35000","rent_trend_pct":"0","period_months":"264"}},{"type":"Feature","geometry":{"type":"Point","coordinates":[106.7997594,-6.2438973,0]},"properties":{"id":"86","latitude":"-6.2438973","longitude":"106.7997594","name":"Tohang's Barber Blok M","description (produk)":"Jasa Cukur","tenant_type (umkm/franchise-tetap/seasonal)":"umkm-tetap","period (tahun/bulan/minggu)":"","transaction_per_day (ribu/juta/milliar)":"","tenant_area (meters squared)":"4 m x 3 m","target_market (pejalan kaki, pekerja kantoran, warga)":"pekerja kantoran, pejalan kaki","revenue_per_month":"","transaction_per_buyer":"","rent_trend":"","rent_price_annual":"","rent_expiry_date":"none","tanggal_survey":"23-Agu-2026","kondisi_bangunan":"bagus","moda_terhubung":"akses pejalan kaki","jarak_ke_stasiun_meter":"225","rent_price_annual_idr":"91250000","transaction_per_day_idr":"1950000","revenue_per_month_idr":"41000000","transaction_per_buyer_idr":"35000","rent_trend_pct":"0","period_months":"12"}},{"type":"Feature","geometry":{"type":"Point","coordinates":[106.8021174,-6.2450286,0]},"properties":{"id":"88","latitude":"-6.2450286","longitude":"106.8021174","name":"Butter Baby","description (produk)":"Makanan ringan (donat, croissant, toast, butteroids), minuman (teh, kopi), dessert (es krim)","tenant_type (umkm/franchise-tetap/seasonal)":"umkm-tetap","period (tahun/bulan/minggu)":"1 tahun","transaction_per_day (ribu/juta/milliar)":"","tenant_area (meters squared)":"4 m x 3 m","target_market (pejalan kaki, pekerja kantoran, warga)":"pejalan kaki, warga","revenue_per_month":"","transaction_per_buyer":"","rent_trend":"","rent_price_annual":"","rent_expiry_date":"none","tanggal_survey":"23-Agu-2026","kondisi_bangunan":"bagus","moda_terhubung":"akses pejalan kaki","jarak_ke_stasiun_meter":"138","rent_price_annual_idr":"91250000","transaction_per_day_idr":"1950000","revenue_per_month_idr":"41000000","transaction_per_buyer_idr":"35000","rent_trend_pct":"0","period_months":"12"}},{"type":"Feature","geometry":{"type":"Point","coordinates":[106.8013144,-6.2445389,0]},"properties":{"id":"89","latitude":"-6.2445389","longitude":"106.8013144","name":"Gramedia Jalma","description (produk)":"Buku dan alat tulis (apa kategorinya)","tenant_type (umkm/franchise-tetap/seasonal)":"umkm-tetap","period (tahun/bulan/minggu)":"1 tahun","transaction_per_day (ribu/juta/milliar)":"","tenant_area (meters squared)":"4 m x 3 m","target_market (pejalan kaki, pekerja kantoran, warga)":"pejalan kaki, warga","revenue_per_month":"","transaction_per_buyer":"","rent_trend":"","rent_price_annual":"","rent_expiry_date":"none","tanggal_survey":"23-Agu-2026","kondisi_bangunan":"bagus","moda_terhubung":"akses pejalan kaki","jarak_ke_stasiun_meter":"67","rent_price_annual_idr":"91250000","transaction_per_day_idr":"1950000","revenue_per_month_idr":"41000000","transaction_per_buyer_idr":"35000","rent_trend_pct":"0","period_months":"12"}},{"type":"Feature","geometry":{"type":"Point","coordinates":[106.8015128,-6.2445782,0]},"properties":{"id":"90","latitude":"-6.2445782","longitude":"106.8015128","name":"Photomatics","description (produk)":"Studio Photo","tenant_type (umkm/franchise-tetap/seasonal)":"umkm-tetap","period (tahun/bulan/minggu)":"2 tahun","transaction_per_day (ribu/juta/milliar)":"","tenant_area (meters squared)":"4 m x 3 m","target_market (pejalan kaki, pekerja kantoran, warga)":"pejalan kaki, warga","revenue_per_month":"","transaction_per_buyer":"","rent_trend":"","rent_price_annual":"","rent_expiry_date":"none","tanggal_survey":"23-Agu-2026","kondisi_bangunan":"bagus","moda_terhubung":"akses pejalan kaki","jarak_ke_stasiun_meter":"293","rent_price_annual_idr":"91250000","transaction_per_day_idr":"1950000","revenue_per_month_idr":"41000000","transaction_per_buyer_idr":"35000","rent_trend_pct":"0","period_months":"24"}},{"type":"Feature","geometry":{"type":"Point","coordinates":[106.8023941,-6.2439836,0]},"properties":{"id":"91","latitude":"-6.2439836","longitude":"106.8023941","name":"K-Stop Korean Mart","description (produk)":"Makanan ringan, minuman","tenant_type (umkm/franchise-tetap/seasonal)":"umkm-tetap","period (tahun/bulan/minggu)":"2 tahun","transaction_per_day (ribu/juta/milliar)":"","tenant_area (meters squared)":"4 m x 3 m","target_market (pejalan kaki, pekerja kantoran, warga)":"pejalan kaki, pekerja kantoran, warga overall","revenue_per_month":"","transaction_per_buyer":"","rent_trend":"","rent_price_annual":"","rent_expiry_date":"none","tanggal_survey":"23-Agu-2026","kondisi_bangunan":"bagus","moda_terhubung":"akses pejalan kaki","jarak_ke_stasiun_meter":"161","rent_price_annual_idr":"91250000","transaction_per_day_idr":"1950000","revenue_per_month_idr":"41000000","transaction_per_buyer_idr":"35000","rent_trend_pct":"0","period_months":"24"}},{"type":"Feature","geometry":{"type":"Point","coordinates":[106.7999986,-6.2439894,0]},"properties":{"id":"92","latitude":"-6.2439894","longitude":"106.7999986","name":"Dimsum Difar","description (produk)":"Makanan ringan (dimsum)","tenant_type (umkm/franchise-tetap/seasonal)":"umkm-tetap","period (tahun/bulan/minggu)":"1 tahun","transaction_per_day (ribu/juta/milliar)":"","tenant_area (meters squared)":"4 m x 3 m","target_market (pejalan kaki, pekerja kantoran, warga)":"pejalan kaki, warga","revenue_per_month":"","transaction_per_buyer":"","rent_trend":"","rent_price_annual":"","rent_expiry_date":"none","tanggal_survey":"23-Agu-2026","kondisi_bangunan":"bagus","moda_terhubung":"akses pejalan kaki","jarak_ke_stasiun_meter":"274","rent_price_annual_idr":"91250000","transaction_per_day_idr":"1950000","revenue_per_month_idr":"41000000","transaction_per_buyer_idr":"35000","rent_trend_pct":"0","period_months":"12"}}]}